mukim,state_id,district,state,postcode1,postcode2,postcode3,postcode
ABI,9,PERLIS,PERLIS,,,,01000
ARAU,9,PERLIS,PERLIS,02600,02600,02600,02600
BERSERI,9,PERLIS,PERLIS,,,,02400
CHUPING,9,PERLIS,PERLIS,,,,02500
UTAN AJI,9,PERLIS,PERLIS,,,,01000
JEJAWI,9,PERLIS,PERLIS,,01000,,01000
KAYANG,9,PERLIS,PERLIS,,,06900,06900
KECHOR,9,PERLIS,PERLIS,,,,01000
KUALA PERLIS,9,PERLIS,PERLIS,02000,02000,02000,02000
KURONG ANAI,9,PERLIS,PERLIS,,,,02600
KURONG BATANG,9,PERLIS,PERLIS,,,,01000
NGULANG,9,PERLIS,PERLIS,,,,02400
ORAN,9,PERLIS,PERLIS,,,,02500
PADANG PAUH,9,PERLIS,PERLIS,,02600,,02600
PADANG SIDING,9,PERLIS,PERLIS,,,,02600
PAYA,9,PERLIS,PERLIS,,,,02400
SANGLANG,9,PERLIS,PERLIS,,,,02800
SENA,9,PERLIS,PERLIS,,,,01000
SERIAB,9,PERLIS,PERLIS,,,,01000
SUNGAI ADAM,9,PERLIS,PERLIS,,,,02600
TITI TINGGI,9,PERLIS,PERLIS,,,,02100
WANG BINTONG,9,PERLIS,PERLIS,,,,01000
BANDAR ARAU,9,PERLIS,PERLIS,02600,02600,02600,02600
BANDAR KANGAR,9,PERLIS,PERLIS,01000,01000,01000,01000
PEKAN KUALA PERLIS,9,PERLIS,PERLIS,02000,02000,"02000, 26600",02000
PEKAN KAKI BUKIT,9,PERLIS,PERLIS,02200,02200,"02200, 26600",02200
ALOR MALAI,2,KOTA SETAR,KEDAH,,05460,71350,05460
ALOR MERAH,2,KOTA SETAR,KEDAH,,05250,71350,05250
ANAK BUKIT,2,KOTA SETAR,KEDAH,,06550,71350,06550
BUKIT PINANG,2,KOTA SETAR,KEDAH,,06200,71350,06200
DERGA,2,KOTA SETAR,KEDAH,,,71350,71350
GUNONG,2,KOTA SETAR,KEDAH,,,71350,71350
HUTAN KAMPONG,2,KOTA SETAR,KEDAH,,,71350,71350
KANGKONG,2,KOTA SETAR,KEDAH,,06650,71350,06650
KOTA SETAR,2,KOTA SETAR,KEDAH,,,71350,71350
KUALA KEDAH,2,KOTA SETAR,KEDAH,06600,06600,"06600, 71350",06600
KUBANG ROTAN,2,KOTA SETAR,KEDAH,,,71350,71350
LANGGAR,2,KOTA SETAR,KEDAH,06500,06500,"06500, 71350",06500
LENGKUAS,2,KOTA SETAR,KEDAH,,,71350,71350
LEPAI,2,KOTA SETAR,KEDAH,,05350,71350,05350
LIMBONG,2,KOTA SETAR,KEDAH,,,71350,71350
MERGONG,2,KOTA SETAR,KEDAH,,05150,71350,05150
PADANG HANG,2,KOTA SETAR,KEDAH,,,71350,71350
PADANG LALANG,2,KOTA SETAR,KEDAH,,06250,71350,06250
PENGKALAN KUNDOR,2,KOTA SETAR,KEDAH,,,71350,71350
PUMPONG,2,KOTA SETAR,KEDAH,,05250,71350,05250
SALA KECHIK,2,KOTA SETAR,KEDAH,,,71350,71350
SUNGAI BAHARU,2,KOTA SETAR,KEDAH,,,71350,71350
TAJAR,2,KOTA SETAR,KEDAH,,,71350,71350
TEBENGAU,2,KOTA SETAR,KEDAH,,,71350,71350
TELAGA MAS,2,KOTA SETAR,KEDAH,,,71350,71350
TELOK CHENGAI,2,KOTA SETAR,KEDAH,,,71350,71350
TITI GAJAH,2,KOTA SETAR,KEDAH,,,71350,71350
TELOK KECHAI,2,KOTA SETAR,KEDAH,,,71350,71350
BANDAR ALOR SETAR,2,KOTA SETAR,KEDAH,,,71350,71350
BANDAR ANAK BUKIT,2,KOTA SETAR,KEDAH,,06550,71350,06550
BANDAR KUALA KEDAH,2,KOTA SETAR,KEDAH,06600,06600,"06600, 71350",06600
BANDAR ALOR MERAH,2,KOTA SETAR,KEDAH,,05250,71350,05250
BANDAR BUKIT PINANG,2,KOTA SETAR,KEDAH,,06200,71350,06200
BANDAR LANGGAR,2,KOTA SETAR,KEDAH,06500,06500,"06500, 71350",06500
BANDAR SIMPANG EMPAT,2,KOTA SETAR,KEDAH,06650,"06650, 06910","34700, 06650, 71350",06650
PEKAN ALOR JANGGUS,2,KOTA SETAR,KEDAH,,06250,"26600, 71350",06250
PEKAN KOTA SARANG SEMUT,2,KOTA SETAR,KEDAH,06800,06800,"26600, 06800, 71350",06800
PEKAN GUNUNG,2,KOTA SETAR,KEDAH,,,"26600, 71350","26600, 71350"
AH,2,KUBANG PASU,KEDAH,,,,06100
BINJAL,2,KUBANG PASU,KEDAH,,,,06000
GELONG,2,KUBANG PASU,KEDAH,,,,06000
BUKIT TINGGI,2,KUBANG PASU,KEDAH,,,,06000
HUSBA,2,KUBANG PASU,KEDAH,,,,06000
JERAM,2,KUBANG PASU,KEDAH,,,"45800, 31850","45800, 31850"
JERLUN,2,KUBANG PASU,KEDAH,,,,06150
JITRA,2,KUBANG PASU,KEDAH,06000,06000,06000,06000
KEPELU,2,KUBANG PASU,KEDAH,,,,06100
KUBANG PASU,2,KUBANG PASU,KEDAH,,,,06000
MALAU,2,KUBANG PASU,KEDAH,,09100,,09100
NAGA,2,KUBANG PASU,KEDAH,,,,06000
PADANG PERAHU,2,KUBANG PASU,KEDAH,,,,06000
PELUBANG,2,KUBANG PASU,KEDAH,,06000,,06000
PERING,2,KUBANG PASU,KEDAH,,,,06100
PUTAT,2,KUBANG PASU,KEDAH,,,,06000
SANGLANG,2,KUBANG PASU,KEDAH,,,,06150
SUNGAI LAKA,2,KUBANG PASU,KEDAH,,,,06010
TEMIN,2,KUBANG PASU,KEDAH,,,,06000
TUNJANG,2,KUBANG PASU,KEDAH,,06000,,06000
WANG TEPUS,2,KUBANG PASU,KEDAH,,,,06000
BANDAR CHANGLUN,2,KUBANG PASU,KEDAH,,,,06010
BANDAR JITRA,2,KUBANG PASU,KEDAH,06000,06000,06000,06000
BANDAR KODIANG,2,KUBANG PASU,KEDAH,06100,06100,06100,06100
BANDAR TUNJANG,2,KUBANG PASU,KEDAH,,06000,,06000
BANDAR BANDAR DARULAMAN,2,KUBANG PASU,KEDAH,,,,06000
BANDAR PADANG SERA,2,KUBANG PASU,KEDAH,,06100,,06100
BANDAR KEPALA BATAS,2,KUBANG PASU,KEDAH,06200,06200,"06200, 13200",06200
BANDAR BUKIT KAYU HITAM,2,KUBANG PASU,KEDAH,06050,06050,06050,06050
PEKAN AYER HITAM,2,KUBANG PASU,KEDAH,06150,06150,"86100, 06150, 26600, 26650",06150
PEKAN KUALA SANGLANG,2,KUBANG PASU,KEDAH,,06150,26600,06150
PEKAN SANGLANG,2,KUBANG PASU,KEDAH,,,26600,26600
PEKAN KERPAN,2,KUBANG PASU,KEDAH,,,26600,26600
PEKAN SINTOK,2,KUBANG PASU,KEDAH,,06100,26600,06100
PEKAN NAPOH,2,KUBANG PASU,KEDAH,,,26600,26600
PEKAN SUNGAI KOROK,2,KUBANG PASU,KEDAH,,06150,26600,06150
BATANG TUNGGANG KANAN,2,PADANG TERAP,KEDAH,,,,06300
BATANG TUNGGANG KIRI,2,PADANG TERAP,KEDAH,,,,06300
BELIMBING KANAN,2,PADANG TERAP,KEDAH,,,,06300
BELIMBING KIRI,2,PADANG TERAP,KEDAH,,,,06300
KURONG HITAM,2,PADANG TERAP,KEDAH,,,,06300
PADANG TERNAK,2,PADANG TERAP,KEDAH,,,,06300
PADANG TERAP KANAN,2,PADANG TERAP,KEDAH,,,,06300
PADANG TERAP KIRI,2,PADANG TERAP,KEDAH,,,,06300
PEDU,2,PADANG TERAP,KEDAH,,06300,,06300
TEKAI,2,PADANG TERAP,KEDAH,,,,06400
TOLAK,2,PADANG TERAP,KEDAH,,,,06300
BANDAR KUALA NERANG,2,PADANG TERAP,KEDAH,06300,06300,06300,06300
PEKAN NAKA,2,PADANG TERAP,KEDAH,,06400,26600,06400
PEKAN DURIAN BURUNG,2,PADANG TERAP,KEDAH,,,26600,26600
PEKAN LUBOK MERBAU,2,PADANG TERAP,KEDAH,,06720,"94000, 26610, 26600",06720
PEKAN BUKIT TEMBAGA,2,PADANG TERAP,KEDAH,,,26600,26600
PEKAN PADANG SANAI,2,PADANG TERAP,KEDAH,,06300,26600,06300
PEKAN KAMPUNG TANJUNG,2,PADANG TERAP,KEDAH,,05150,26600,05150
AYER HANGAT,2,LANGKAWI,KEDAH,07000,07000,07000,07000
BOHOR,2,LANGKAWI,KEDAH,07000,07000,07000,07000
KEDAWANG,2,LANGKAWI,KEDAH,07000,07000,07000,07000
KUAH,2,LANGKAWI,KEDAH,07000,07000,07000,07000
PADANG MASIRAT,2,LANGKAWI,KEDAH,07000,07000,07000,07000
ULU MELAKA,2,LANGKAWI,KEDAH,07000,07000,07000,07000
BANDAR KUAH,2,LANGKAWI,KEDAH,07000,07000,07000,07000
BANDAR PADANG LALANG,2,LANGKAWI,KEDAH,07000,"07000, 06250",07000,07000
PEKAN TELOK DATAI,2,LANGKAWI,KEDAH,07000,07000,"07000, 26600",07000
BUJANG,2,KUALA MUDA,KEDAH,,08100,,08100
BUKIT MERIAM,2,KUALA MUDA,KEDAH,,,,06000
GURUN,2,KUALA MUDA,KEDAH,08300,08300,08300,08300
HAJI KUDONG,2,KUALA MUDA,KEDAH,,,27400,27400
KOTA,2,KUALA MUDA,KEDAH,,,71350,71350
KUALA,2,KUALA MUDA,KEDAH,,,,06000
MERBOK,2,KUALA MUDA,KEDAH,08400,08400,08400,08400
PEKULA,2,KUALA MUDA,KEDAH,,,,06000
PINANG TUNGGAL,2,KUALA MUDA,KEDAH,,08000,,08000
RANTAU PANJANG,2,KUALA MUDA,KEDAH,,,"71200, 34140","71200, 34140"
SEMELING,2,KUALA MUDA,KEDAH,,,,06000
SIDAM KIRI,2,KUALA MUDA,KEDAH,,09400,,09400
SIMPOR,2,KUALA MUDA,KEDAH,,08500,,08500
SUNGAI PASIR,2,KUALA MUDA,KEDAH,,08000,,08000
SUNGAI PETANI,2,KUALA MUDA,KEDAH,08000,08000,08000,08000
TELOI KIRI,2,KUALA MUDA,KEDAH,,,,06000
BANDAR AMAN JAYA,2,KUALA MUDA,KEDAH,,08000,,08000
BANDAR BEDONG,2,KUALA MUDA,KEDAH,08100,08100,"27400, 08100",08100
BANDAR SUNGAI LALANG,2,KUALA MUDA,KEDAH,,08100,,08100
BANDAR TIKAM BATU,2,KUALA MUDA,KEDAH,,08700,,08700
PEKAN JENIANG,2,KUALA MUDA,KEDAH,08700,08700,"26600, 08700",08700
PEKAN KOTA KUALA MUDA,2,KUALA MUDA,KEDAH,08500,08500,"08500, 26600, 71350",08500
PEKAN TANJUNG DAWAI,2,KUALA MUDA,KEDAH,,08200,26600,08200
DULANG,2,YAN,KEDAH,06900,06900,06900,06900
SALA BESAR,2,YAN,KEDAH,06900,06900,06900,06900
SINGKIR,2,YAN,KEDAH,06900,06900,06900,06900
SUNGAI DAUN,2,YAN,KEDAH,06900,06900,06900,06900
YAN,2,YAN,KEDAH,06900,06900,06900,06900
BANDAR GUAR CHEMPEDAK,2,YAN,KEDAH,06900,"06900, 08800",06900,06900
BANDAR YAN,2,YAN,KEDAH,06900,06900,06900,06900
PEKAN SIMPANG TIGA SUNGAI LIMAU,2,YAN,KEDAH,06900,"06900, 09700, 06800","06900, 34700, 26600",06900
PEKAN SUNGAI LIMAU DALAM,2,YAN,KEDAH,06900,"06900, 07000","06900, 26600",06900
PEKAN TEROI,2,YAN,KEDAH,06900,"06900, 09000","06900, 26600",06900
PEKAN SINGKIR,2,YAN,KEDAH,06900,06900,"06900, 26600",06900
JENERI,2,SIK,KEDAH,08210,"08210, 08700",08210,08210
SIK,2,SIK,KEDAH,08210,08210,08210,08210
SOK,2,SIK,KEDAH,08210,08210,08210,08210
TELOI,2,SIK,KEDAH,08210,08210,08210,08210
BANDAR SIK,2,SIK,KEDAH,08210,08210,08210,08210
PEKAN BATU LAMA SIK,2,SIK,KEDAH,08210,08210,"08210, 26600",08210
PEKAN GULAU,2,SIK,KEDAH,08210,08210,"08210, 26600",08210
PEKAN GAJAH PUTEH,2,SIK,KEDAH,08210,08210,"08210, 26600",08210
PEKAN CHAROK PADANG,2,SIK,KEDAH,08210,08210,"08210, 26600",08210
BAKAI,2,BALING,KEDAH,09100,09100,09100,09100
BALING,2,BALING,KEDAH,09100,09100,09100,09100
BONGOR,2,BALING,KEDAH,09100,09100,09100,09100
KUPANG,2,BALING,KEDAH,"09100, 09200","09100, 09200","09100, 09200","09100, 09200"
PULAI,2,BALING,KEDAH,09100,09100,09100,09100
SIONG,2,BALING,KEDAH,09100,09100,09100,09100
TAWAR,2,BALING,KEDAH,09100,"09100, 09400",09100,09100
TELOI KANAN,2,BALING,KEDAH,09100,"09100, 09310",09100,09100
BANDAR BALING,2,BALING,KEDAH,09100,09100,09100,09100
BANDAR KUALA KETIL,2,BALING,KEDAH,"09100, 09300","09100, 09300","09100, 09300","09100, 09300"
BANDAR KUPANG,2,BALING,KEDAH,"09100, 09200","09100, 09200","09100, 09200","09100, 09200"
PEKAN KAMPUNG BARU KEJAI,2,BALING,KEDAH,09100,"09100, 06100, 08000","09100, 26600",09100
PEKAN PULAI,2,BALING,KEDAH,09100,09100,"09100, 26600",09100
PEKAN TAWAR,2,BALING,KEDAH,09100,"09100, 09400","09100, 26600",09100
PEKAN KUALA PEGANG,2,BALING,KEDAH,09100,09100,"09100, 26600",09100
PEKAN PARIT PANJANG,2,BALING,KEDAH,09100,"09100, 09200","09100, 26600, 32800",09100
PEKAN KAMPUNG LALANG,2,BALING,KEDAH,09100,"09100, 08200","09100, 26600",09100
PEKAN MALAU,2,BALING,KEDAH,09100,09100,"09100, 26600",09100
BAGAN SENA,2,KULIM,KEDAH,09000,09000,09000,09000
JUNJONG,2,KULIM,KEDAH,09000,09000,09000,09000
KARANGAN,2,KULIM,KEDAH,"09000, 09700","09000, 09700","09000, 09700","09000, 09700"
KELADI,2,KULIM,KEDAH,09000,09000,09000,09000
KULIM,2,KULIM,KEDAH,09000,09000,09000,09000
LUNAS,2,KULIM,KEDAH,"09000, 09600","09000, 09600","09000, 09600","09000, 09600"
MAHANG,2,KULIM,KEDAH,09000,"09000, 09700",09000,09000
NAGA LILIT,2,KULIM,KEDAH,09000,09000,09000,09000
PADANG CHINA,2,KULIM,KEDAH,09000,09000,09000,09000
PADANG MEHA,2,KULIM,KEDAH,09000,09000,09000,09000
SEDIM,2,KULIM,KEDAH,09000,09000,09000,09000
SIDAM KANAN,2,KULIM,KEDAH,09000,09000,09000,09000
SUNGAI SELUANG,2,KULIM,KEDAH,09000,"09000, 09600",09000,09000
SUNGAI ULAR,2,KULIM,KEDAH,09000,09000,09000,09000
TERAP,2,KULIM,KEDAH,09000,09000,09000,09000
BANDAR KULIM,2,KULIM,KEDAH,09000,09000,09000,09000
BANDAR LUNAS,2,KULIM,KEDAH,"09000, 09600","09000, 09600","09000, 09600","09000, 09600"
BANDAR PADANG SERAI,2,KULIM,KEDAH,"09000, 09400","09000, 09400, 06100","09000, 09400","09000, 09400"
PEKAN JUNJONG,2,KULIM,KEDAH,09000,09000,"09000, 26600",09000
PEKAN KARANGAN,2,KULIM,KEDAH,"09000, 09700","09000, 09700","09000, 09700, 26600","09000, 09700"
PEKAN LABU BESAR,2,KULIM,KEDAH,"09000, 09010","09000, 09010","09000, 09010, 26600","09000, 09010"
PEKAN MAHANG,2,KULIM,KEDAH,09000,"09000, 09700","09000, 26600",09000
PEKAN MERBAU PULAS,2,KULIM,KEDAH,09000,"09000, 09300","09000, 94000, 26610, 26600",09000
PEKAN SUNGAI KARANGAN,2,KULIM,KEDAH,"09000, 09700","09410, 09000, 09700","09000, 09700, 26600","09000, 09700"
PEKAN SUNGAI KOB,2,KULIM,KEDAH,09000,"09000, 09700","09000, 26600",09000
PEKAN PADANG MEHA,2,KULIM,KEDAH,09000,09000,"09000, 26600",09000
BAGAN SAMAK,2,BANDAR BAHARU,KEDAH,34950,34950,34950,34950
KUALA SELAMA,2,BANDAR BAHARU,KEDAH,34950,"09810, 34950","34100, 34950",34950
PERMATANG PASIR,2,BANDAR BAHARU,KEDAH,34950,34950,"34750, 34950",34950
RELAU,2,BANDAR BAHARU,KEDAH,34950,34950,34950,34950
SERDANG,2,BANDAR BAHARU,KEDAH,"09800, 34950","09800, 34950","09800, 34950","09800, 34950"
SUNGAI BATU,2,BANDAR BAHARU,KEDAH,34950,"09800, 34950",34950,34950
SUNGAI KECHIL,2,BANDAR BAHARU,KEDAH,34950,34950,34950,34950
BANDAR BANDAR BAHARU,2,BANDAR BAHARU,KEDAH,34950,34950,34950,34950
BANDAR SERDANG,2,BANDAR BAHARU,KEDAH,"09800, 34950","09800, 34950","09800, 34950","09800, 34950"
PEKAN LUBUK BUNTAR,2,BANDAR BAHARU,KEDAH,34950,"09800, 34950","26600, 34950",34950
PEKAN SELAMA,2,BANDAR BAHARU,KEDAH,34950,"09810, 34950","34100, 26600, 34950",34950
PEKAN SUNGAI KECIL ILIR,2,BANDAR BAHARU,KEDAH,34950,34950,"26600, 34950",34950
PEKAN RELAU,2,BANDAR BAHARU,KEDAH,34950,34950,"26600, 34950",34950
AYER PUTEH,2,PENDANG,KEDAH,06700,06700,"06700, 24050",06700
BUKIT RAYA,2,PENDANG,KEDAH,06700,06700,06700,06700
GUAR KEPAYANG,2,PENDANG,KEDAH,"06900, 06700","06900, 06700","06900, 06700","06900, 06700"
PADANG KERBAU,2,PENDANG,KEDAH,06700,06700,"94000, 06700",06700
PADANG PELIANG,2,PENDANG,KEDAH,06700,06700,06700,06700
PADANG PUSING,2,PENDANG,KEDAH,06700,06700,"06700, 31550",06700
RAMBAI,2,PENDANG,KEDAH,06700,06700,06700,06700
TOBIAR,2,PENDANG,KEDAH,06700,06700,06700,06700
BANDAR PEDANG,2,PENDANG,KEDAH,06700,06700,06700,06700
PEKAN BUKIT JENUN,2,PENDANG,KEDAH,06700,06700,"06700, 26600",06700
PEKAN KUBUR PANJANG,2,PENDANG,KEDAH,06700,06700,"06700, 26600",06700
PEKAN TANAH MERAH,2,PENDANG,KEDAH,06700,"06700, 06000","06700, 26600, 17500",06700
PEKAN TOKAI,2,PENDANG,KEDAH,06700,"06660, 06700","06700, 26600",06700
PEKAN KOBAH,2,PENDANG,KEDAH,06700,"06700, 06800","06700, 26600",06700
PEKAN KAMPUNG BARU,2,PENDANG,KEDAH,06700,"09100, 06700, 06100, 08000","06700, 26600",06700
PEKAN SUNGAI TIANG,2,PENDANG,KEDAH,"06700, 06750","06700, 06750","06700, 06750, 26600","06700, 06750"
DERANG,2,POKOK SENA,KEDAH,06400,06400,06400,06400
GAJAH MATI,2,POKOK SENA,KEDAH,06400,06400,06400,06400
JABI,2,POKOK SENA,KEDAH,06400,06400,06400,06400
LESONG,2,POKOK SENA,KEDAH,06400,06400,"96850, 06400",06400
TUALANG,2,POKOK SENA,KEDAH,06400,06400,06400,06400
BUKIT LADA,2,POKOK SENA,KEDAH,06400,06400,06400,06400
BANDAR POKOK SENA,2,POKOK SENA,KEDAH,06400,06400,06400,06400
PEKAN KEBUN 500,2,POKOK SENA,KEDAH,06400,06400,"26600, 06400",06400
ALOR BAKAT,3,BACHOK,KELANTAN,16300,16300,16300,16300
BACKHOK,3,BACHOK,KELANTAN,16300,16300,16300,16300
BATOR,3,BACHOK,KELANTAN,16300,16300,16300,16300
CHAP,3,BACHOK,KELANTAN,16300,16300,16300,16300
CHERANG HANGUS,3,BACHOK,KELANTAN,16300,16300,16300,16300
GAJAH MATI,3,BACHOK,KELANTAN,16300,16300,16300,16300
GUNONG,3,BACHOK,KELANTAN,16300,16300,16300,16300
KUAU,3,BACHOK,KELANTAN,16300,16300,16300,16300
KEMASIN,3,BACHOK,KELANTAN,16300,16300,16300,16300
KUBANG TELAGA,3,BACHOK,KELANTAN,16300,16300,16300,16300
KUCHELONG,3,BACHOK,KELANTAN,16300,16300,16300,16300
LUBOK TEMBESU,3,BACHOK,KELANTAN,16300,16300,16300,16300
MAK LIPAH,3,BACHOK,KELANTAN,16300,16300,16300,16300
MELAWI,3,BACHOK,KELANTAN,16300,16300,16300,16300
NIPAH,3,BACHOK,KELANTAN,16300,16300,16300,16300
PAK PURA,3,BACHOK,KELANTAN,16300,16300,16300,16300
PAUH SEMBILAN,3,BACHOK,KELANTAN,16300,16300,16300,16300
PAYA MENGKUANG,3,BACHOK,KELANTAN,16300,16300,16300,16300
PERUPOK,3,BACHOK,KELANTAN,16300,16300,16300,16300
REPEK,3,BACHOK,KELANTAN,16300,16300,16300,16300
RUSA,3,BACHOK,KELANTAN,16300,16300,16300,16300
SENAK,3,BACHOK,KELANTAN,16300,16300,16300,16300
SERDANG,3,BACHOK,KELANTAN,16300,16300,"09800, 16300",16300
TAKANG,3,BACHOK,KELANTAN,16300,16300,16300,16300
TANJONG,3,BACHOK,KELANTAN,16300,16300,16300,16300
TANJONG JERING,3,BACHOK,KELANTAN,16300,16300,16300,16300
TANJONG PAUH,3,BACHOK,KELANTAN,16300,16300,16300,16300
TELOK MESIRA,3,BACHOK,KELANTAN,16300,16300,16300,16300
TELONG,3,BACHOK,KELANTAN,16300,16300,16300,16300
TEMU RANGGAS,3,BACHOK,KELANTAN,16300,16300,16300,16300
TEPUS,3,BACHOK,KELANTAN,16300,16300,16300,16300
TUALANG SALAK,3,BACHOK,KELANTAN,16300,"16300, 17500",16300,16300
BANDAR BACHOK,3,BACHOK,KELANTAN,16300,16300,16300,16300
PEKAN JELAWAT,3,BACHOK,KELANTAN,"16070, 16300","16070, 16300","16070, 16300, 26600","16070, 16300"
AUR DURI,3,KOTA BHARU,KELANTAN,,,71350,71350
BADAK MATI,3,KOTA BHARU,KELANTAN,,,71350,71350
BADAK,3,KOTA BHARU,KELANTAN,,,71350,71350
BADANG,3,KOTA BHARU,KELANTAN,,,71350,71350
BANGGU,3,KOTA BHARU,KELANTAN,,,71350,71350
BANGGOL,3,KOTA BHARU,KELANTAN,15350,15350,"15350, 71350",15350
BAUNG,3,KOTA BHARU,KELANTAN,,,"94000, 71350","94000, 71350"
BAYANG,3,KOTA BHARU,KELANTAN,,,"06900, 71350","06900, 71350"
BECHAH MULONG,3,KOTA BHARU,KELANTAN,16010,16010,"71350, 16010",16010
BETA HULU,3,KOTA BHARU,KELANTAN,,,71350,71350
BETA HILIR,3,KOTA BHARU,KELANTAN,15100,15100,"15100, 71350",15100
BETING,3,KOTA BHARU,KELANTAN,,,71350,71350
BIAH,3,KOTA BHARU,KELANTAN,,,71350,71350
BINJAI,3,KOTA BHARU,KELANTAN,,,71350,71350
BULOH POH,3,KOTA BHARU,KELANTAN,,,71350,71350
BUNUT PAYONG,3,KOTA BHARU,KELANTAN,15150,15150,"15150, 71350",15150
BUT,3,KOTA BHARU,KELANTAN,,,71350,71350
CHEKLI,3,KOTA BHARU,KELANTAN,,,71350,71350
CHEKOK,3,KOTA BHARU,KELANTAN,16100,"16450, 16100","71350, 16100",16100
CHE LATIFF,3,KOTA BHARU,KELANTAN,,17000,71350,17000
CHICHA,3,KOTA BHARU,KELANTAN,,,71350,71350
DAL,3,KOTA BHARU,KELANTAN,,,71350,71350
DEMIT,3,KOTA BHARU,KELANTAN,,,71350,71350
DUSON RENDAH,3,KOTA BHARU,KELANTAN,,,71350,71350
GUNTONG,3,KOTA BHARU,KELANTAN,,,71350,71350
JELUTONG,3,KOTA BHARU,KELANTAN,,,"98100, 11600, 71350","98100, 11600, 71350"
KADOK,3,KOTA BHARU,KELANTAN,,16450,71350,16450
KARANG,3,KOTA BHARU,KELANTAN,,,71350,71350
KAMPONG SIREH,3,KOTA BHARU,KELANTAN,,,71350,71350
KEDAI BULOH,3,KOTA BHARU,KELANTAN,15350,15350,"15350, 71350",15350
KIJANG,3,KOTA BHARU,KELANTAN,,,71350,71350
KEMUBU,3,KOTA BHARU,KELANTAN,,18000,71350,18000
KEMUMIN,3,KOTA BHARU,KELANTAN,,,71350,71350
KENALI,3,KOTA BHARU,KELANTAN,,,71350,71350
KETEREH BARAT,3,KOTA BHARU,KELANTAN,16450,16450,"16450, 71350",16450
KETEREH TIMOR,3,KOTA BHARU,KELANTAN,16450,16450,"16450, 71350",16450
KOH,3,KOTA BHARU,KELANTAN,,,71350,71350
KOTA,3,KOTA BHARU,KELANTAN,,,71350,71350
LANGGAR,3,KOTA BHARU,KELANTAN,,18000,"06500, 71350",18000
LEMBU,3,KOTA BHARU,KELANTAN,,,71350,71350
LUBOK JAMBU,3,KOTA BHARU,KELANTAN,,17000,71350,17000
LUBOK PUKOL,3,KOTA BHARU,KELANTAN,,,71350,71350
LUNDANG,3,KOTA BHARU,KELANTAN,,,71350,71350
LUNDANG PAKU,3,KOTA BHARU,KELANTAN,,,71350,71350
MAHANG BARAT,3,KOTA BHARU,KELANTAN,,,71350,71350
MAHANG TIMOR,3,KOTA BHARU,KELANTAN,,,71350,71350
MENTUAN,3,KOTA BHARU,KELANTAN,,,71350,71350
MELOR,3,KOTA BHARU,KELANTAN,,,71350,71350
PADANG BONGOR,3,KOTA BHARU,KELANTAN,,,71350,71350
PADANG ENGGANG,3,KOTA BHARU,KELANTAN,,,71350,71350
PADANG GARONG,3,KOTA BHARU,KELANTAN,,,71350,71350
PADANG LEBAN,3,KOTA BHARU,KELANTAN,,,71350,71350
PADANG RAJA,3,KOTA BHARU,KELANTAN,,,71350,71350
PADANG SAKAR,3,KOTA BHARU,KELANTAN,,,71350,71350
PADANG TENGAH,3,KOTA BHARU,KELANTAN,,,71350,71350
PANCHOR,3,KOTA BHARU,KELANTAN,16100,16100,"71350, 84500, 16100",16100
PANGKAL PISANG,3,KOTA BHARU,KELANTAN,,,71350,71350
PARIT,3,KOTA BHARU,KELANTAN,,,"71350, 32800","71350, 32800"
PASIR HA,3,KOTA BHARU,KELANTAN,,,71350,71350
PASIR MAS,3,KOTA BHARU,KELANTAN,17000,17000,"17000, 71350",17000
PATEK,3,KOTA BHARU,KELANTAN,,,71350,71350
PAUH,3,KOTA BHARU,KELANTAN,,,71350,71350
PAYA,3,KOTA BHARU,KELANTAN,,,71350,71350
PENDEK,3,KOTA BHARU,KELANTAN,,,71350,71350
PANGKALAN CHEPA,3,KOTA BHARU,KELANTAN,,,71350,71350
PERINGAT,3,KOTA BHARU,KELANTAN,,,71350,71350
PEROL,3,KOTA BHARU,KELANTAN,,,71350,71350
PINTU GANG,3,KOTA BHARU,KELANTAN,,,71350,71350
PULAU,3,KOTA BHARU,KELANTAN,,,71350,71350
PULAU BELANGA,3,KOTA BHARU,KELANTAN,,,71350,71350
PULAU GAJAH,3,KOTA BHARU,KELANTAN,16100,16100,"71350, 16100",16100
PULAU KUNDOR,3,KOTA BHARU,KELANTAN,,,71350,71350
PULAU PANJANG,3,KOTA BHARU,KELANTAN,,,71350,71350
PULAU PISANG,3,KOTA BHARU,KELANTAN,,,71350,71350
SABAK,3,KOTA BHARU,KELANTAN,16100,16100,"71350, 16100",16100
SALOR,3,KOTA BHARU,KELANTAN,15100,15100,"15100, 71350",15100
SEMUT API,3,KOTA BHARU,KELANTAN,,,71350,71350
SERING,3,KOTA BHARU,KELANTAN,,,71350,71350
SETERPA,3,KOTA BHARU,KELANTAN,,,71350,71350
TANGJONG CHAT,3,KOTA BHARU,KELANTAN,,,71350,71350
TAPANG,3,KOTA BHARU,KELANTAN,15200,15200,"15200, 71350",15200
TEBING TINGGI,3,KOTA BHARU,KELANTAN,16100,16100,"71350, 16100",16100
TELOK,3,KOTA BHARU,KELANTAN,,,71350,71350
TELOK BHARU,3,KOTA BHARU,KELANTAN,,,71350,71350
TELOK KITANG,3,KOTA BHARU,KELANTAN,,,71350,71350
TIONG,3,KOTA BHARU,KELANTAN,,,71350,71350
TOK KU,3,KOTA BHARU,KELANTAN,,,71350,71350
WAKAF STAN,3,KOTA BHARU,KELANTAN,,,71350,71350
WAKAF SIKU,3,KOTA BHARU,KELANTAN,15150,15150,"08210, 15150, 71350",15150
BANDAR KOTA BHARU,3,KOTA BHARU,KELANTAN,,,71350,71350
BANDAR BARU KUBANG KERIAN,3,KOTA BHARU,KELANTAN,16150,16150,"16150, 71350",16150
PEKAN MULONG,3,KOTA BHARU,KELANTAN,16010,16010,"26600, 71350, 16010",16010
BAGAN,3,MACHANG,KELANTAN,18500,18500,18500,18500
BAKAR,3,MACHANG,KELANTAN,18500,18500,18500,18500
DEWAN,3,MACHANG,KELANTAN,18500,18500,18500,18500
GADING GALOH,3,MACHANG,KELANTAN,18500,18500,18500,18500
JAKAR,3,MACHANG,KELANTAN,18500,18500,18500,18500
JOH,3,MACHANG,KELANTAN,18500,18500,18500,18500
KELAWEH,3,MACHANG,KELANTAN,18500,18500,18500,18500
KERAWANG,3,MACHANG,KELANTAN,18500,18500,"48000, 18500",18500
KERILLA,3,MACHANG,KELANTAN,18500,18500,18500,18500
KUALA KERAK,3,MACHANG,KELANTAN,18500,18500,18500,18500
LABOK,3,MACHANG,KELANTAN,18500,18500,18500,18500
LIMAU HANTU,3,MACHANG,KELANTAN,18500,18500,18500,18500
MACHANG,3,MACHANG,KELANTAN,18500,18500,18500,18500
PADANG KEMUNCHUT,3,MACHANG,KELANTAN,18500,18500,18500,18500
PEK,3,MACHANG,KELANTAN,18500,18500,18500,18500
PEMANOK,3,MACHANG,KELANTAN,18500,18500,18500,18500
PULAU CHONDONG,3,MACHANG,KELANTAN,18500,18500,"18500, 27400",18500
RAJA,3,MACHANG,KELANTAN,18500,18500,18500,18500
TENGAH,3,MACHANG,KELANTAN,18500,18500,18500,18500
TOK BOK,3,MACHANG,KELANTAN,18500,18500,18500,18500
ULU SAT,3,MACHANG,KELANTAN,18500,18500,18500,18500
BANDAR MACHANG,3,MACHANG,KELANTAN,18500,18500,18500,18500
PEKAN TEMANGAN,3,MACHANG,KELANTAN,18500,18500,"18500, 26600",18500
ALOR BULOH,3,PASIR MAS,KELANTAN,"17000, 17010","17000, 17010","17000, 17010","17000, 17010"
ALOR PASIR,3,PASIR MAS,KELANTAN,17000,"17000, 17500",17000,17000
APA-APA,3,PASIR MAS,KELANTAN,17000,17000,17000,17000
APAM,3,PASIR MAS,KELANTAN,17000,17000,17000,17000
BAKONG,3,PASIR MAS,KELANTAN,17000,17000,17000,17000
BECHAH MENERONG,3,PASIR MAS,KELANTAN,17000,17000,17000,17000
BECHAH PALAS,3,PASIR MAS,KELANTAN,17000,17000,17000,17000
BECHAH SEMAK,3,PASIR MAS,KELANTAN,17000,17000,17000,17000
BUKIT TUKU,3,PASIR MAS,KELANTAN,17000,17000,17000,17000
CHETOK,3,PASIR MAS,KELANTAN,17000,17000,17000,17000
GELAM,3,PASIR MAS,KELANTAN,17000,17000,17000,17000
GUA,3,PASIR MAS,KELANTAN,17000,17000,17000,17000
GUAL NERING,3,PASIR MAS,KELANTAN,17000,17000,17000,17000
GUAL PERIOK,3,PASIR MAS,KELANTAN,17000,17000,17000,17000
JABO,3,PASIR MAS,KELANTAN,17000,17000,17000,17000
JEJAWI,3,PASIR MAS,KELANTAN,17000,17000,17000,17000
KANGKONG,3,PASIR MAS,KELANTAN,17000,17000,17000,17000
KALA,3,PASIR MAS,KELANTAN,17000,17000,17000,17000
KASA,3,PASIR MAS,KELANTAN,17000,17000,17000,17000
KEDONDONG,3,PASIR MAS,KELANTAN,17000,"16450, 17000","17000, 27400",17000
KENAK,3,PASIR MAS,KELANTAN,17000,17000,17000,17000
KERASAK,3,PASIR MAS,KELANTAN,17000,17000,"17000, 44200",17000
KIAT,3,PASIR MAS,KELANTAN,17000,17000,17000,17000
KUALA LEMAL,3,PASIR MAS,KELANTAN,17000,17000,17000,17000
KUBANG BATANG,3,PASIR MAS,KELANTAN,17000,17000,17000,17000
KUBANG BEMBAN,3,PASIR MAS,KELANTAN,17000,17000,17000,17000
KUBANG GATAL,3,PASIR MAS,KELANTAN,17000,17000,17000,17000
KUBANG GENDANG,3,PASIR MAS,KELANTAN,17000,17000,17000,17000
KUBANG KETAM,3,PASIR MAS,KELANTAN,17000,17000,17000,17000
KUBANG SEPAT,3,PASIR MAS,KELANTAN,17000,17000,17000,17000
KUBANG TERAP,3,PASIR MAS,KELANTAN,17000,17000,17000,17000
LALANG,3,PASIR MAS,KELANTAN,17000,17000,17000,17000
LUBOK ANCHING,3,PASIR MAS,KELANTAN,17000,17000,17000,17000
LUBOK GONG,3,PASIR MAS,KELANTAN,17000,17000,17000,17000
LUBOK KAWAH,3,PASIR MAS,KELANTAN,17000,17000,17000,17000
LUBOK TAPAH,3,PASIR MAS,KELANTAN,17000,17000,"17000, 35000",17000
LUBOK SETOL,3,PASIR MAS,KELANTAN,17000,17000,17000,17000
MERANTI,3,PASIR MAS,KELANTAN,17000,17000,17000,17000
PADANG EMBON,3,PASIR MAS,KELANTAN,17000,17000,17000,17000
PALOH,3,PASIR MAS,KELANTAN,17000,17000,"86600, 17000",17000
RANTAU PANJANG,3,PASIR MAS,KELANTAN,17000,17000,"71200, 17000, 34140",17000
SAKAR,3,PASIR MAS,KELANTAN,17000,17000,17000,17000
TASIK BERANGAN,3,PASIR MAS,KELANTAN,17000,17000,"08210, 17000",17000
TELIAR,3,PASIR MAS,KELANTAN,17000,17000,17000,17000
TEDONG,3,PASIR MAS,KELANTAN,17000,17000,"17000, 27400",17000
TOK SANGKOT,3,PASIR MAS,KELANTAN,17000,17000,17000,17000
TOK UBAN,3,PASIR MAS,KELANTAN,17000,17000,17000,17000
KUALA KELAR,3,PASIR MAS,KELANTAN,17000,17000,17000,17000
BANDAR PASIR MAS,3,PASIR MAS,KELANTAN,17000,17000,17000,17000
PEKAN RANTAU PANJANG,3,PASIR MAS,KELANTAN,17000,17000,"71200, 17000, 34140, 26600",17000
BANGGOL SETOL,3,PASIR PUTEH,KELANTAN,16800,"16800, 15350",16800,16800
BATU SEBUTIR,3,PASIR PUTEH,KELANTAN,16800,16800,16800,16800
BERANGAN,3,PASIR PUTEH,KELANTAN,16800,16800,16800,16800
BUKIT ABAL BARAT,3,PASIR PUTEH,KELANTAN,16800,16800,16800,16800
BUKIT ABAL TIMOR,3,PASIR PUTEH,KELANTAN,16800,16800,16800,16800
BUKIT MERBAU,3,PASIR PUTEH,KELANTAN,16800,16800,"16800, 94000",16800
BUKIT TANAH,3,PASIR PUTEH,KELANTAN,16800,16800,16800,16800
CHERANG RUKU,3,PASIR PUTEH,KELANTAN,16800,16800,16800,16800
CHANGGAI,3,PASIR PUTEH,KELANTAN,16800,16800,16800,16800
GONG DATOK BARAT,3,PASIR PUTEH,KELANTAN,16800,16800,16800,16800
GONG DATOK TIMOR,3,PASIR PUTEH,KELANTAN,16800,16800,16800,16800
GONG CHAPA,3,PASIR PUTEH,KELANTAN,16800,16800,16800,16800
GONG CHENGAL,3,PASIR PUTEH,KELANTAN,16800,"16800, 16450",16800,16800
GONG GARU,3,PASIR PUTEH,KELANTAN,16800,16800,16800,16800
GONG KULIM,3,PASIR PUTEH,KELANTAN,16800,"16800, 17500","16800, 09000",16800
GONG NANGKA,3,PASIR PUTEH,KELANTAN,16800,16800,16800,16800
GONG PACHAT,3,PASIR PUTEH,KELANTAN,16800,16800,16800,16800
JERAM,3,PASIR PUTEH,KELANTAN,16800,16800,"16800, 45800, 31850",16800
JERUS,3,PASIR PUTEH,KELANTAN,16800,16800,16800,16800
KANDIS,3,PASIR PUTEH,KELANTAN,16800,16800,16800,16800
KAMPONG WAKAF,3,PASIR PUTEH,KELANTAN,16800,16800,16800,16800
KOLAM TEMBUSU,3,PASIR PUTEH,KELANTAN,16800,16800,16800,16800
MERBOL,3,PASIR PUTEH,KELANTAN,16800,16800,16800,16800
MERKANG,3,PASIR PUTEH,KELANTAN,16800,16800,16800,16800
PADANG PAK AMAT,3,PASIR PUTEH,KELANTAN,16800,16800,16800,16800
PASIR PUTEH,3,PASIR PUTEH,KELANTAN,16800,16800,16800,16800
PANGKALAN,3,PASIR PUTEH,KELANTAN,16800,16800,16800,16800
PERMATANG SUNGKAI,3,PASIR PUTEH,KELANTAN,16800,16800,"16800, 34750, 35600",16800
SELIGI,3,PASIR PUTEH,KELANTAN,16800,16800,16800,16800
SELINSING,3,PASIR PUTEH,KELANTAN,16800,16800,16800,16800
SEMERAK,3,PASIR PUTEH,KELANTAN,16800,16800,16800,16800
TASIK,3,PASIR PUTEH,KELANTAN,16800,16800,"08210, 16800",16800
TELIPOK,3,PASIR PUTEH,KELANTAN,16800,16800,16800,16800
BANDAR PASIR PUTEH,3,PASIR PUTEH,KELANTAN,16800,16800,16800,16800
PEKAN SELINSING,3,PASIR PUTEH,KELANTAN,16800,16800,"16800, 26600",16800
BATANG MERBAU,3,TANAH MERAH,KELANTAN,17500,17500,"94000, 17500",17500
BENDANG NYIOR,3,TANAH MERAH,KELANTAN,17500,17500,17500,17500
BUKIT DURIAN,3,TANAH MERAH,KELANTAN,17500,17500,17500,17500
ULU KUSIAL,3,TANAH MERAH,KELANTAN,17500,17500,17500,17500
JEDOK,3,TANAH MERAH,KELANTAN,17500,17500,17500,17500
KUALA PAKU,3,TANAH MERAH,KELANTAN,17500,17500,17500,17500
LAWANG,3,TANAH MERAH,KELANTAN,17500,17500,17500,17500
MAKA,3,TANAH MERAH,KELANTAN,17500,17500,17500,17500
NIBONG,3,TANAH MERAH,KELANTAN,17500,17500,17500,17500
PASIR GANDA,3,TANAH MERAH,KELANTAN,17500,17500,17500,17500
RAMBAI,3,TANAH MERAH,KELANTAN,17500,17500,17500,17500
SOKOR,3,TANAH MERAH,KELANTAN,17500,17500,17500,17500
TANAH MERAH,3,TANAH MERAH,KELANTAN,17500,17500,17500,17500
TEBING TINGGI,3,TANAH MERAH,KELANTAN,17500,"16100, 17500",17500,17500
BANDAR TANAH MERAH,3,TANAH MERAH,KELANTAN,17500,17500,17500,17500
BECHAH RESAK,3,TUMPAT,KELANTAN,16210,16210,16210,16210
BUNOHAN,3,TUMPAT,KELANTAN,16210,16210,16210,16210
BUNUT SARANG BURONG,3,TUMPAT,KELANTAN,16210,16210,16210,16210
CHENDERONG BATU,3,TUMPAT,KELANTAN,16210,16210,16210,16210
CHERANG MELINTANG,3,TUMPAT,KELANTAN,16210,16210,"16210, 33200",16210
GETING,3,TUMPAT,KELANTAN,16210,16210,16210,16210
JAL,3,TUMPAT,KELANTAN,16210,16210,16210,16210
KAMPONG LAUT,3,TUMPAT,KELANTAN,16210,16210,16210,16210
KELABORAN,3,TUMPAT,KELANTAN,16210,16210,16210,16210
KETIL,3,TUMPAT,KELANTAN,16210,16210,16210,16210
KOK KELI,3,TUMPAT,KELANTAN,16210,16210,16210,16210
KUTANG,3,TUMPAT,KELANTAN,16210,16210,16210,16210
MAK NERALANG,3,TUMPAT,KELANTAN,16210,16210,16210,16210
MORAK,3,TUMPAT,KELANTAN,16210,16210,16210,16210
PASIR PEKAN,3,TUMPAT,KELANTAN,16210,"16210, 16250","16210, 26600",16210
PALEKBANG,3,TUMPAT,KELANTAN,16210,16210,16210,16210
PERIOK,3,TUMPAT,KELANTAN,16210,16210,16210,16210
PULAU BESAR,3,TUMPAT,KELANTAN,16210,"15350, 16210",16210,16210
SELEHONG SELATAN,3,TUMPAT,KELANTAN,16210,16210,16210,16210
SELEHONG UTARA,3,TUMPAT,KELANTAN,16210,16210,16210,16210
SIMPANGAN,3,TUMPAT,KELANTAN,16210,16210,"34700, 16210",16210
SUNGAI PINANG,3,TUMPAT,KELANTAN,16210,16210,16210,16210
TABAR,3,TUMPAT,KELANTAN,16210,16210,16210,16210
TALAK,3,TUMPAT,KELANTAN,16210,16210,16210,16210
TELOK REJUNA,3,TUMPAT,KELANTAN,16210,16210,16210,16210
TUJOH,3,TUMPAT,KELANTAN,16210,16210,16210,16210
TUMPAT,3,TUMPAT,KELANTAN,16210,16210,16210,16210
WAKAF BHARU,3,TUMPAT,KELANTAN,"16210, 16250","16210, 16250","16210, 16250","16210, 16250"
WAKAF DELIMA,3,TUMPAT,KELANTAN,16210,16210,16210,16210
BANDAR TUMPAT,3,TUMPAT,KELANTAN,16210,16210,16210,16210
BATU PAPAN,3,GUA MUSANG,KELANTAN,18300,18300,18300,18300
GUA MUSANG,3,GUA MUSANG,KELANTAN,18300,18300,18300,18300
ULU NENGGIRI,3,GUA MUSANG,KELANTAN,18300,18300,18300,18300
KETIL,3,GUA MUSANG,KELANTAN,18300,18300,18300,18300
KUALA SUNGAI,3,GUA MUSANG,KELANTAN,18300,18300,18300,18300
LIMAU KASTURI,3,GUA MUSANG,KELANTAN,18300,"18000, 18300",18300,18300
PULAI,3,GUA MUSANG,KELANTAN,18300,"17000, 18300",18300,18300
RELAI,3,GUA MUSANG,KELANTAN,18300,18300,18300,18300
RENOK,3,GUA MUSANG,KELANTAN,18300,18300,18300,18300
BANDAR GUA MUSANG,3,GUA MUSANG,KELANTAN,18300,18300,18300,18300
BATU MENGKEBANG,3,KUALA KRAI,KELANTAN,18000,18000,18000,18000
ENGGONG,3,KUALA KRAI,KELANTAN,,,,18000
GAJAH,3,KUALA KRAI,KELANTAN,,,,18000
KANDEK,3,KUALA KRAI,KELANTAN,,,,18000
KENOR,3,KUALA KRAI,KELANTAN,,,,18000
KUALA GERIS,3,KUALA KRAI,KELANTAN,,,,18200
KUALA KRAI,3,KUALA KRAI,KELANTAN,,,,18000
KUALA NAL,3,KUALA KRAI,KELANTAN,,,,18000
KUALA PAHI,3,KUALA KRAI,KELANTAN,18000,18000,18000,18000
KUALA PERGAU,3,KUALA KRAI,KELANTAN,,,,18200
KUALA STONG,3,KUALA KRAI,KELANTAN,,,,18200
MAMBONG,3,KUALA KRAI,KELANTAN,,,,18000
MANEK URAI,3,KUALA KRAI,KELANTAN,18000,18000,18000,18000
MANJOR,3,KUALA KRAI,KELANTAN,,,,18000
TELEKONG,3,KUALA KRAI,KELANTAN,,,,18000
BANDAR KUALA KRAI,3,KUALA KRAI,KELANTAN,,,,18000
BELIMBING,3,JELI,KELANTAN,17600,17600,17600,17600
BUNGA TANJONG,3,JELI,KELANTAN,17600,17600,17600,17600
JELI,3,JELI,KELANTAN,17600,17600,17600,17600
JELI TEPI SUNGAI,3,JELI,KELANTAN,17600,17600,17600,17600
KALAI,3,JELI,KELANTAN,17600,17600,17600,17600
KUALA BALAH,3,JELI,KELANTAN,17600,"17700, 17600",17600,17600
LUBOK BONGOR,3,JELI,KELANTAN,17600,17600,17600,17600
BALAR,3,KECIL LOJING,KELANTAN,,18300,,18300
KUALA BETIS,3,KECIL LOJING,KELANTAN,,18300,,18300
BLAU,3,KECIL LOJING,KELANTAN,,18300,,18300
HAU,3,KECIL LOJING,KELANTAN,,18300,,18300
HENDROP,3,KECIL LOJING,KELANTAN,,18300,,18300
SIGAR,3,KECIL LOJING,KELANTAN,,18300,,18300
TUEL,3,KECIL LOJING,KELANTAN,,18300,,18300
BUKIT KENAK,11,BESUT,TERENGGANU,,"22200, 22000",,"22200, 22000"
BUKIT PUTERI,11,BESUT,TERENGGANU,,"22200, 22000",,"22200, 22000"
HULU BESUT,11,BESUT,TERENGGANU,,22200,,22200
JABI,11,BESUT,TERENGGANU,,"22020, 22200",,"22020, 22200"
KAMPONG RAJA,11,BESUT,TERENGGANU,,22200,,22200
KELUANG,11,BESUT,TERENGGANU,,22200,,22200
KERANDANG,11,BESUT,TERENGGANU,,"22200, 22000",,"22200, 22000"
KUALA BESUT,11,BESUT,TERENGGANU,22300,"22200, 22300",22300,22300
KUBANG BEMBAN,11,BESUT,TERENGGANU,,22200,,22200
LUBUK KAWAH,11,BESUT,TERENGGANU,,22200,,22200
PASIR AKAR,11,BESUT,TERENGGANU,,"22200, 22000",,"22200, 22000"
PELAGAT,11,BESUT,TERENGGANU,,22200,,22200
PENGKALAN NANGKA,11,BESUT,TERENGGANU,,22200,,22200
PULAU PERHENTIAN,11,BESUT,TERENGGANU,,"22200, 22300",,"22200, 22300"
TEMBILA,11,BESUT,TERENGGANU,,22200,,22200
TENANG,11,BESUT,TERENGGANU,,22200,,22200
PEKAN JERTIH,11,BESUT,TERENGGANU,,22200,26600,22200
PEKAN KAMPUNG RAJA,11,BESUT,TERENGGANU,22200,22200,"22200, 26600",22200
PEKAN KUALA BESUT,11,BESUT,TERENGGANU,22300,"22200, 22300","22300, 26600",22300
KUALA ABANG,11,DUNGUN,TERENGGANU,23000,23000,23000,23000
BESUL,11,DUNGUN,TERENGGANU,23000,23000,23000,23000
HULU PAKA,11,DUNGUN,TERENGGANU,"23100, 23000","23100, 23000","23100, 23000","23100, 23000"
JENGAI,11,DUNGUN,TERENGGANU,23000,23000,23000,23000
JERANGAU,11,DUNGUN,TERENGGANU,23000,"23200, 23000",23000,23000
KUALA DUNGUN,11,DUNGUN,TERENGGANU,23000,23000,23000,23000
KUALA PAKA,11,DUNGUN,TERENGGANU,"23100, 23000","23100, 23000","23100, 23000","23100, 23000"
KUMPAL,11,DUNGUN,TERENGGANU,23000,23000,23000,23000
PASIR RAJA,11,DUNGUN,TERENGGANU,23000,23000,23000,23000
RASAU,11,DUNGUN,TERENGGANU,23000,"23200, 23000","23000, 44200",23000
SURA,11,DUNGUN,TERENGGANU,23000,23000,23000,23000
BANDAR DUNGUN,11,DUNGUN,TERENGGANU,23000,"24200, 23000",23000,23000
PEKAN KUALA PAKA,11,DUNGUN,TERENGGANU,"23100, 23000","23100, 23000","23100, 23000, 26600","23100, 23000"
BANDI,11,KEMAMAN,TERENGGANU,,,,24000
BANGGUL,11,KEMAMAN,TERENGGANU,,,,24000
BINJAI,11,KEMAMAN,TERENGGANU,,24000,,24000
CUKAI,11,KEMAMAN,TERENGGANU,24000,24000,24000,24000
HULU CUKAI,11,KEMAMAN,TERENGGANU,24000,24000,24000,24000
HULU JABUR,11,KEMAMAN,TERENGGANU,,,,24060
KEMASIK,11,KEMAMAN,TERENGGANU,,,08210,08210
KERTEH,11,KEMAMAN,TERENGGANU,24300,24300,24300,24300
KIJAL,11,KEMAMAN,TERENGGANU,24100,24100,24100,24100
PASIR SEMUT,11,KEMAMAN,TERENGGANU,,,,24000
TEBAK,11,KEMAMAN,TERENGGANU,,,,24000
TELUK KALUNG,11,KEMAMAN,TERENGGANU,,,,24100
BANDAR CUKAI,11,KEMAMAN,TERENGGANU,24000,24000,24000,24000
PEKAN AIR JERNIH,11,KEMAMAN,TERENGGANU,,,26600,26600
PEKAN AIR PUTIH,11,KEMAMAN,TERENGGANU,,,26600,26600
PEKAN KEMASIK,11,KEMAMAN,TERENGGANU,,,"08210, 26600","08210, 26600"
PEKAN KIJAL,11,KEMAMAN,TERENGGANU,24100,24100,"24100, 26600",24100
ATAS TOL,11,KUALA TERENGGANU,TERENGGANU,21070,21070,21070,21070
BATU BURUK,11,KUALA TERENGGANU,TERENGGANU,,,,20400
BATU RAKIT,11,KUALA TERENGGANU,TERENGGANU,,,,21020
BELARA,11,KUALA TERENGGANU,TERENGGANU,21200,21200,21200,21200
BUKIT BESAR,11,KUALA TERENGGANU,TERENGGANU,21100,21100,21100,21100
CABANG TIGA,11,KUALA TERENGGANU,TERENGGANU,,,,21000
CENERIANG,11,KUALA TERENGGANU,TERENGGANU,,,,21080
GELUGUR KEDAI,11,KUALA TERENGGANU,TERENGGANU,,,,20050
GELUGUR RAJA,11,KUALA TERENGGANU,TERENGGANU,,,,20050
KEPUNG,11,KUALA TERENGGANU,TERENGGANU,,,,20050
KUALA IBAI,11,KUALA TERENGGANU,TERENGGANU,,,,20400
KUALA NERUS,11,KUALA TERENGGANU,TERENGGANU,,,,21300
KUBANG PARIT,11,KUALA TERENGGANU,TERENGGANU,,,32800,32800
LOSONG,11,KUALA TERENGGANU,TERENGGANU,,,96850,96850
MANIR,11,KUALA TERENGGANU,TERENGGANU,21200,21200,21200,21200
PALUH,11,KUALA TERENGGANU,TERENGGANU,,,,20050
PENGADANG BULUH,11,KUALA TERENGGANU,TERENGGANU,,,,21070
PULAU-PULAU,11,KUALA TERENGGANU,TERENGGANU,,,,20100
PULAU REDANG,11,KUALA TERENGGANU,TERENGGANU,21090,21090,21090,21090
RENGAS,11,KUALA TERENGGANU,TERENGGANU,,,,20050
SERADA,11,KUALA TERENGGANU,TERENGGANU,,,,20050
TOK JAMAL,11,KUALA TERENGGANU,TERENGGANU,,,,20050
BANDAR KUALA TERENGGANU,11,KUALA TERENGGANU,TERENGGANU,,,,20000
PEKAN CABANG TIGA,11,KUALA TERENGGANU,TERENGGANU,,,26600,26600
HULU BERANG,11,HULU TERENGGANU,TERENGGANU,,,,21800
HULU TELEMUNG,11,HULU TERENGGANU,TERENGGANU,,,,21700
HULU TERENGGANU,11,HULU TERENGGANU,TERENGGANU,,,,21700
JENAGUR,11,HULU TERENGGANU,TERENGGANU,,,,21700
KUALA BERANG,11,HULU TERENGGANU,TERENGGANU,21700,21700,21700,21700
KUALA TELEMUNG,11,HULU TERENGGANU,TERENGGANU,,,,21210
PENGHULU DIMAN,11,HULU TERENGGANU,TERENGGANU,,,,21010
TANGGUL,11,HULU TERENGGANU,TERENGGANU,,,,21040
TERSAT,11,HULU TERENGGANU,TERENGGANU,,,,21700
PEKAN KUALA BERANG,11,HULU TERENGGANU,TERENGGANU,21700,21700,"26600, 21700",21700
JERUNG,11,MARANG,TERENGGANU,21600,21600,"21600, 26500",21600
MERCANG,11,MARANG,TERENGGANU,21600,21600,"21600, 26500",21600
PULAU KERENGGA,11,MARANG,TERENGGANU,21600,21600,"21600, 26500",21600
RUSILA,11,MARANG,TERENGGANU,21600,"21600, 21080","21600, 26500",21600
ALUR LIMBAT,11,MARANG,TERENGGANU,21600,21600,"21600, 26500",21600
BUKIT PAYUNG,11,MARANG,TERENGGANU,21600,21600,"21600, 26500",21600
PEKAN MARANG,11,MARANG,TERENGGANU,21600,21600,"21600, 26600, 26500",21600
PEKAN bukit payung,11,MARANG,TERENGGANU,21600,21600,"21600, 26600, 26500",21600
CALUK,11,SETIU,TERENGGANU,,22120,,22120
GUNTUNG,11,SETIU,TERENGGANU,,22120,,22120
HULU NERUS,11,SETIU,TERENGGANU,,22120,,22120
MERANG,11,SETIU,TERENGGANU,,22120,,22120
TASIK,11,SETIU,TERENGGANU,,22120,08210,22120
MUKIM 1,7,SEBERANG PERAI TENGAH,PULAU PINANG,,,,13700
MUKIM 2,7,SEBERANG PERAI TENGAH,PULAU PINANG,,,,13500
MUKIM 3,7,SEBERANG PERAI TENGAH,PULAU PINANG,,,,13500
MUKIM 4,7,SEBERANG PERAI TENGAH,PULAU PINANG,,,,13500
MUKIM 5,7,SEBERANG PERAI TENGAH,PULAU PINANG,,,,14000
MUKIM 6,7,SEBERANG PERAI TENGAH,PULAU PINANG,,,,14000
MUKIM 7,7,SEBERANG PERAI TENGAH,PULAU PINANG,,,,14000
MUKIM 8,7,SEBERANG PERAI TENGAH,PULAU PINANG,,,,14000
MUKIM 9,7,SEBERANG PERAI TENGAH,PULAU PINANG,,,,14000
MUKIM 10,7,SEBERANG PERAI TENGAH,PULAU PINANG,,,,14000
MUKIM 11,7,SEBERANG PERAI TENGAH,PULAU PINANG,,,,14000
MUKIM 12,7,SEBERANG PERAI TENGAH,PULAU PINANG,,,,14100
MUKIM 13,7,SEBERANG PERAI TENGAH,PULAU PINANG,,,,14100
MUKIM 14,7,SEBERANG PERAI TENGAH,PULAU PINANG,,,,14000
MUKIM 15,7,SEBERANG PERAI TENGAH,PULAU PINANG,,,,14000
MUKIM 16,7,SEBERANG PERAI TENGAH,PULAU PINANG,,,,14000
MUKIM 17,7,SEBERANG PERAI TENGAH,PULAU PINANG,,,,14000
MUKIM 18,7,SEBERANG PERAI TENGAH,PULAU PINANG,,,,14000
MUKIM 19,7,SEBERANG PERAI TENGAH,PULAU PINANG,,,,14000
MUKIM 20,7,SEBERANG PERAI TENGAH,PULAU PINANG,,,,14400
MUKIM 21,7,SEBERANG PERAI TENGAH,PULAU PINANG,,,,14100
BANDAR BUKIT MERTAJAM,7,SEBERANG PERAI TENGAH,PULAU PINANG,14000,14000,14000,14000
BANDAR PRAI,7,SEBERANG PERAI TENGAH,PULAU PINANG,,,,13600
MUKIM 1,7,SEBERANG PERAI UTARA,PULAU PINANG,,,,13110
MUKIM 2,7,SEBERANG PERAI UTARA,PULAU PINANG,,,,13200
MUKIM 3,7,SEBERANG PERAI UTARA,PULAU PINANG,,,,13200
MUKIM 4,7,SEBERANG PERAI UTARA,PULAU PINANG,,,,13100
MUKIM 5,7,SEBERANG PERAI UTARA,PULAU PINANG,,,,13200
MUKIM 6,7,SEBERANG PERAI UTARA,PULAU PINANG,,,,13200
MUKIM 7,7,SEBERANG PERAI UTARA,PULAU PINANG,,,,13050
MUKIM 8,7,SEBERANG PERAI UTARA,PULAU PINANG,,,,13200
MUKIM 9,7,SEBERANG PERAI UTARA,PULAU PINANG,,,,13000
MUKIM 10,7,SEBERANG PERAI UTARA,PULAU PINANG,,,,13800
MUKIM 11,7,SEBERANG PERAI UTARA,PULAU PINANG,,,,13800
MUKIM 12,7,SEBERANG PERAI UTARA,PULAU PINANG,,,,13300
MUKIM 13,7,SEBERANG PERAI UTARA,PULAU PINANG,,,,14000
MUKIM 14,7,SEBERANG PERAI UTARA,PULAU PINANG,,,,12300
MUKIM 15,7,SEBERANG PERAI UTARA,PULAU PINANG,,,,12100
MUKIM 16,7,SEBERANG PERAI UTARA,PULAU PINANG,,,,13800
BANDAR BUTTERWORTH,7,SEBERANG PERAI UTARA,PULAU PINANG,12100,12100,12100,12100
BANDAR KEPALA BATAS,7,SEBERANG PERAI UTARA,PULAU PINANG,13200,13200,"06200, 13200",13200
MUKIM 1,7,SEBERANG PERAI SELATAN,PULAU PINANG,,,,14120
MUKIM 2,7,SEBERANG PERAI SELATAN,PULAU PINANG,,,,14000
MUKIM 3,7,SEBERANG PERAI SELATAN,PULAU PINANG,,,,14200
MUKIM 4,7,SEBERANG PERAI SELATAN,PULAU PINANG,,,,14200
MUKIM 5,7,SEBERANG PERAI SELATAN,PULAU PINANG,,,,14200
MUKIM 6,7,SEBERANG PERAI SELATAN,PULAU PINANG,,,,14200
MUKIM 7,7,SEBERANG PERAI SELATAN,PULAU PINANG,,,,14300
MUKIM 8,7,SEBERANG PERAI SELATAN,PULAU PINANG,,,,14300
MUKIM 9,7,SEBERANG PERAI SELATAN,PULAU PINANG,,,,14300
MUKIM 10,7,SEBERANG PERAI SELATAN,PULAU PINANG,,,,14320
MUKIM 11,7,SEBERANG PERAI SELATAN,PULAU PINANG,,,,14300
MUKIM 12,7,SEBERANG PERAI SELATAN,PULAU PINANG,,,,14200
MUKIM 13,7,SEBERANG PERAI SELATAN,PULAU PINANG,,,,14110
MUKIM 14,7,SEBERANG PERAI SELATAN,PULAU PINANG,,,,14100
MUKIM 15,7,SEBERANG PERAI SELATAN,PULAU PINANG,,,,14120
MUKIM 16,7,SEBERANG PERAI SELATAN,PULAU PINANG,,,,14100
BANDAR NIBONG TEBAL,7,SEBERANG PERAI SELATAN,PULAU PINANG,14300,14300,14300,14300
BANDAR SUNGAI BAKAP,7,SEBERANG PERAI SELATAN,PULAU PINANG,,14200,,14200
MUKIM 13,7,TIMOR LAUT,PULAU PINANG,,,,11500
MUKIM 14,7,TIMOR LAUT,PULAU PINANG,,,,11060
MUKIM 16,7,TIMOR LAUT,PULAU PINANG,,,,11500
MUKIM 17,7,TIMOR LAUT,PULAU PINANG,,,,11100
MUKIM 18,7,TIMOR LAUT,PULAU PINANG,,,,11200
BANDAR AYER ITAM,7,TIMOR LAUT,PULAU PINANG,11500,11500,11500,11500
BANDAR BATU FERRINGGI,7,TIMOR LAUT,PULAU PINANG,,,,11000
BANDAR BUKIT BENDERA,7,TIMOR LAUT,PULAU PINANG,,11300,,11300
BANDAR GLUGOR,7,TIMOR LAUT,PULAU PINANG,,,,10150
BANDAR GEORGE TOWN,7,TIMOR LAUT,PULAU PINANG,,,,10450
BANDAR JELUTONG,7,TIMOR LAUT,PULAU PINANG,11600,11600,"98100, 11600",11600
BANDAR TANJONG BUNGAH,7,TIMOR LAUT,PULAU PINANG,,,,11200
BANDAR TANJONG TOKONG,7,TIMOR LAUT,PULAU PINANG,10470,10470,10470,10470
BANDAR TANJONG PINANG,7,TIMOR LAUT,PULAU PINANG,,,,10470
MUKIM 1,7,BARAT DAYA,PULAU PINANG,,,,11010
MUKIM 2,7,BARAT DAYA,PULAU PINANG,,,,11050
MUKIM 3,7,BARAT DAYA,PULAU PINANG,,,,11010
MUKIM 4,7,BARAT DAYA,PULAU PINANG,,,,11000
MUKIM 5,7,BARAT DAYA,PULAU PINANG,,,,11000
MUKIM 6,7,BARAT DAYA,PULAU PINANG,,,,11000
MUKIM 7,7,BARAT DAYA,PULAU PINANG,,,,11000
MUKIM 8,7,BARAT DAYA,PULAU PINANG,,,,11000
MUKIM 9,7,BARAT DAYA,PULAU PINANG,,,,11000
MUKIM 10,7,BARAT DAYA,PULAU PINANG,,,,11900
MUKIM 11,7,BARAT DAYA,PULAU PINANG,,,,11920
MUKIM 12,7,BARAT DAYA,PULAU PINANG,,,,11900
MUKIM A,7,BARAT DAYA,PULAU PINANG,,,,11010
MUKIM B,7,BARAT DAYA,PULAU PINANG,,,,11000
MUKIM C,7,BARAT DAYA,PULAU PINANG,,,,11000
MUKIM D,7,BARAT DAYA,PULAU PINANG,,,,11000
MUKIM E,7,BARAT DAYA,PULAU PINANG,,,,11000
MUKIM F,7,BARAT DAYA,PULAU PINANG,,,,11000
MUKIM G,7,BARAT DAYA,PULAU PINANG,,,,11000
MUKIM H,7,BARAT DAYA,PULAU PINANG,,,,11000
MUKIM I,7,BARAT DAYA,PULAU PINANG,,,,11000
MUKIM J,7,BARAT DAYA,PULAU PINANG,,,,11000
BANDAR BALIK PULAU,7,BARAT DAYA,PULAU PINANG,11000,11000,11000,11000
BANDAR BAYAN LEPAS,7,BARAT DAYA,PULAU PINANG,11900,11900,"06900, 11900",11900
BATANG PADANG,8,BATANG PADANG,PERAK,,,,35000
BIDOR,8,BATANG PADANG,PERAK,35500,35500,35500,35500
CHENDERIANG,8,BATANG PADANG,PERAK,35300,35300,35300,35300
HULU BERNAM BARAT,8,BATANG PADANG,PERAK,36500,36500,36500,36500
HULU BERNAM TIMOR,8,BATANG PADANG,PERAK,36500,36500,36500,36500
SLIM,8,BATANG PADANG,PERAK,,,,35800
SUNGKAI,8,BATANG PADANG,PERAK,35600,35600,35600,35600
BANDAR BIDOR,8,BATANG PADANG,PERAK,35500,35500,35500,35500
BANDAR CHENDERIAN,8,BATANG PADANG,PERAK,,,,35350
BANDAR SUNGKAI,8,BATANG PADANG,PERAK,35600,35600,35600,35600
BANDAR TANJONG MALIM,8,BATANG PADANG,PERAK,,,,35600
BANDAR TAPAH,8,BATANG PADANG,PERAK,35000,35000,35000,35000
BANDAR TEMOH,8,BATANG PADANG,PERAK,35350,35350,35350,35350
PEKAN AYER KUNING,8,BATANG PADANG,PERAK,,"34850, 31900",26600,"34850, 31900"
PEKAN BANIR,8,BATANG PADANG,PERAK,,,26600,26600
PEKAN BANTANG,8,BATANG PADANG,PERAK,,,26600,26600
PEKAN BIKAM,8,BATANG PADANG,PERAK,,,26600,26600
PEKAN SLIM,8,BATANG PADANG,PERAK,,,26600,26600
PEKAN SUNGAI LESONG,8,BATANG PADANG,PERAK,,,"96850, 26600","96850, 26600"
PEKAN TAPAH ROAD,8,BATANG PADANG,PERAK,"35400, 35000","35400, 35000","35400, 35000, 26600","35400, 35000"
PEKAN TEMOH STATION,8,BATANG PADANG,PERAK,35350,35350,"35350, 26600",35350
PEKAN TEROLAK,8,BATANG PADANG,PERAK,,,26600,26600
BERUAS,8,MANJUNG,PERAK,,,,32700
LEKIR,8,MANJUNG,PERAK,,32000,,32000
LUMUT,8,MANJUNG,PERAK,32200,32200,32200,32200
PENGKALAN BAHARU,8,MANJUNG,PERAK,,,,34900
SITIAWAN,8,MANJUNG,PERAK,32000,32000,32000,32000
BANDAR LUMUT,8,MANJUNG,PERAK,32200,32200,32200,32200
PEKAN AYER TAWAR,8,MANJUNG,PERAK,32400,32400,"26600, 32400",32400
PEKAN BERUAS,8,MANJUNG,PERAK,,,26600,26600
PEKAN CHANGKAT KERUING,8,MANJUNG,PERAK,32500,32500,"32500, 26600",32500
PEKAN DAMAR LAUT,8,MANJUNG,PERAK,,32200,26600,32200
PEKAN KAMPONG BAHARU,8,MANJUNG,PERAK,,,26600,26600
PEKAN KAMPONG KOH,8,MANJUNG,PERAK,,,26600,26600
PEKAN KAMPONG SITIAWAN,8,MANJUNG,PERAK,32000,32000,"26600, 32000",32000
PEKAN PANGKOR,8,MANJUNG,PERAK,,,26600,26600
PEKAN PANTAI REMIS,8,MANJUNG,PERAK,34900,34900,"26600, 34900",34900
PEKAN PASIR BOGAK,8,MANJUNG,PERAK,,32300,26600,32300
PEKAN GURNEY,8,MANJUNG,PERAK,,32000,26600,32000
PEKAN PANGKALAN BAHARU,8,MANJUNG,PERAK,,,26600,26600
PEKAN SEGARI,8,MANJUNG,PERAK,,32200,"27660, 26600",32200
PEKAN SITIAWAN,8,MANJUNG,PERAK,32000,32000,"26600, 32000",32000
PEKAN SUNGAI PINANG KECHIL,8,MANJUNG,PERAK,,,26600,26600
BELANJA,8,KINTA,PERAK,,,,32610
HULU KINTA,8,KINTA,PERAK,31150,31150,31150,31150
SUNGAI RAIA,8,KINTA,PERAK,,31300,,31300
SUNGAI TERAP,8,KINTA,PERAK,,31000,,31000
TANJONG TUALANG,8,KINTA,PERAK,,,,31800
BANDAR BATU GAJAH,8,KINTA,PERAK,31000,31000,31000,31000
BANDAR CHEMOR,8,KINTA,PERAK,31200,31200,31200,31200
BANDAR IPOH (U),8,KINTA,PERAK,,,,30020
BANDAR IPOH (S),8,KINTA,PERAK,,,,31350
BANDAR JELAPANG,8,KINTA,PERAK,,30020,,30020
BANDAR LAHAT,8,KINTA,PERAK,,31500,,31500
BANDAR MENGELEMBU,8,KINTA,PERAK,,,,31450
BANDAR PAPAN,8,KINTA,PERAK,,,,31550
BANDAR PUSING,8,KINTA,PERAK,31550,31550,31550,31550
BANDAR SEPUTEH,8,KINTA,PERAK,,,,31560
BANDAR SUNGAI RAYA,8,KINTA,PERAK,,,,31300
BANDAR TAMBUN,8,KINTA,PERAK,,31400,,31400
BANDAR TANJONG RAMBUTAN,8,KINTA,PERAK,,,,31250
BANDAR TERONOH,8,KINTA,PERAK,,,,31750
PEKAN KANTHAN,8,KINTA,PERAK,,,26600,26600
PEKAN SIMPANG PULAI,8,KINTA,PERAK,34700,"34700, 33100, 31300","34700, 26600",34700
PEKAN TANJONG TUALANG,8,KINTA,PERAK,,,26600,26600
BAGAN SERAI,8,KERIAN,PERAK,34300,34300,34300,34300
BAGAN TIANG,8,KERIAN,PERAK,,34250,,34250
BERIAH,8,KERIAN,PERAK,,,,34300
GUNONG SEMANGGOL,8,KERIAN,PERAK,,,,34400
KUALA KURAU,8,KERIAN,PERAK,34350,34350,34350,34350
PARIT BUNTAR,8,KERIAN,PERAK,"34200, 32800","34200, 32800","34200, 32800","34200, 32800"
SELINSING,8,KERIAN,PERAK,,,,34400
TANJONG PIANDANG,8,KERIAN,PERAK,,,,34350
BANDAR BAGAN SERAI,8,KERIAN,PERAK,34300,34300,34300,34300
BANDAR KUALA KURAU,8,KERIAN,PERAK,34350,34350,34350,34350
BANDAR PARIT BUNTAR,8,KERIAN,PERAK,"34200, 32800","34200, 32800","34200, 32800","34200, 32800"
PEKAN BUKIT MERAH,8,KERIAN,PERAK,,34310,26600,34310
PEKAN JALAN BARU,8,KERIAN,PERAK,,"31650, 32400, 32000",26600,"31650, 32400, 32000"
PEKAN SIMPANG LIMA,8,KERIAN,PERAK,34700,"34200, 34700, 32000","34700, 26600",34700
PEKAN SUNGAI GEDONG,8,KERIAN,PERAK,,34300,"26600, 27400",34300
PEKAN TANJONG PIANDANG,8,KERIAN,PERAK,,,26600,26600
CHENGAR GALAH,8,KUALA KANGSAR,PERAK,33000,33000,33000,33000
KAMPONG BUAYA,8,KUALA KANGSAR,PERAK,33000,33000,33000,33000
KOTA LAMA KANAN,8,KUALA KANGSAR,PERAK,"33000, 33040","33000, 33040","71350, 33000, 33040","33000, 33040"
KOTA LAMA KIRI,8,KUALA KANGSAR,PERAK,33000,33000,"33000, 71350",33000
LUBOK MERBAU,8,KUALA KANGSAR,PERAK,"33010, 33000","33010, 33000","33010, 94000, 33000","33010, 33000"
PULAU KAMIRI,8,KUALA KANGSAR,PERAK,33000,33000,"98000, 33000",33000
SAIONG,8,KUALA KANGSAR,PERAK,33000,33000,33000,33000
SENGGANG,8,KUALA KANGSAR,PERAK,33000,33000,33000,33000
SUNGAI SIPUT,8,KUALA KANGSAR,PERAK,"33000, 31100","33000, 31100","33000, 31100","33000, 31100"
BANDAR KUALA KANGSAR,8,KUALA KANGSAR,PERAK,33000,33000,33000,33000
BANDAR SUNGAI SIPUT,8,KUALA KANGSAR,PERAK,"33000, 31100","33000, 31100","33000, 31100","33000, 31100"
PEKAN GUNONG PONDOK,8,KUALA KANGSAR,PERAK,33000,33000,"33000, 26600",33000
PEKAN JERLUN,8,KUALA KANGSAR,PERAK,33000,33000,"33000, 26600",33000
PEKAN KARAI,8,KUALA KANGSAR,PERAK,33000,33000,"33000, 26600",33000
PEKAN KATI,8,KUALA KANGSAR,PERAK,"33020, 33000","33020, 33000","33020, 33000, 26600","33020, 33000"
PEKAN LUBOK MERBAU,8,KUALA KANGSAR,PERAK,"33010, 33000","33010, 33000","33000, 33010, 26610, 26600, 94000","33010, 33000"
PEKAN MANONG,8,KUALA KANGSAR,PERAK,"33800, 33000","33800, 33000","33800, 33000, 26600","33800, 33000"
PEKAN PADANG RENGAS,8,KUALA KANGSAR,PERAK,"33700, 33000","33700, 33000","33700, 33000, 26600","33700, 33000"
PEKAN SALAK,8,KUALA KANGSAR,PERAK,33000,33000,"33000, 26600",33000
ASAM KUMBANG,8,LARUT & MATANG,PERAK,34750,"34000, 34750",34750,34750
BATU KURAU,8,LARUT & MATANG,PERAK,"34500, 34750","34500, 34750","34500, 34750","34500, 34750"
BUKIT GANTANG,8,LARUT & MATANG,PERAK,34750,"34750, 34030",34750,34750
JEBONG,8,LARUT & MATANG,PERAK,34750,34750,34750,34750
KAMUNTING,8,LARUT & MATANG,PERAK,"34750, 34600","34750, 34600","34750, 34600","34750, 34600"
PENGKALAN AOR,8,LARUT & MATANG,PERAK,34750,34750,34750,34750
SIMPANG,8,LARUT & MATANG,PERAK,"34700, 34750","34700, 34750","34700, 34750","34700, 34750"
SUNGAI LIMAU,8,LARUT & MATANG,PERAK,34750,"34750, 34800, 34510, 32040",34750,34750
SUNGAI TINGGI,8,LARUT & MATANG,PERAK,34750,"34750, 34800",34750,34750
TERONG,8,LARUT & MATANG,PERAK,34750,34750,34750,34750
TUPAI,8,LARUT & MATANG,PERAK,34750,"34000, 34750",34750,34750
BANDAR KAMUNTING,8,LARUT & MATANG,PERAK,"34750, 34600","34750, 34600","34750, 34600","34750, 34600"
BANDAR KUALA SEPETANG,8,LARUT & MATANG,PERAK,"34750, 34650","34750, 34650","34750, 34650","34750, 34650"
BANDAR MATANG,8,LARUT & MATANG,PERAK,34750,34750,34750,34750
BANDAR TAIPING,8,LARUT & MATANG,PERAK,"34000, 34750","34000, 34750","34000, 34750","34000, 34750"
PEKAN BATU KURAU,8,LARUT & MATANG,PERAK,"34500, 34750","34500, 34750","34500, 26600, 34750","34500, 34750"
PEKAN CHANGKAT JERING,8,LARUT & MATANG,PERAK,"34750, 34850","34750, 34850","34750, 26600, 34850","34750, 34850"
PEKAN PONDOK TANJONG,8,LARUT & MATANG,PERAK,34750,"34010, 34750","34750, 26600",34750
PEKAN SIMPANG,8,LARUT & MATANG,PERAK,"34700, 34750","34700, 34750","34700, 34750, 26600","34700, 34750"
PEKAN TERUNG,8,LARUT & MATANG,PERAK,34750,34750,"34750, 26600",34750
BAGAN DATUK,8,HILIR PERAK,PERAK,,,,36100
CHANGKAT JONG,8,HILIR PERAK,PERAK,,,,36700
DURIAN SEBATANG,8,HILIR PERAK,PERAK,,32900,,32900
HUTAN MELINTANG,8,HILIR PERAK,PERAK,"36400, 33200","36400, 31100, 33200","36400, 33200","36400, 33200"
LABU KUBONG,8,HILIR PERAK,PERAK,,"33010, 36600",,"33010, 36600"
RUNGKUP,8,HILIR PERAK,PERAK,,,,36200
SUNGAI DURIAN,8,HILIR PERAK,PERAK,,"31800, 31100",,"31800, 31100"
SUNGAI MANIK,8,HILIR PERAK,PERAK,,,,36750
TELOK BARU,8,HILIR PERAK,PERAK,,,,36300
BANDAR TELUK INTAN,8,HILIR PERAK,PERAK,"36000, 33200","36000, 33200","36000, 33200","36000, 33200"
PEKAN BAGAN DATUK,8,HILIR PERAK,PERAK,,,26600,26600
PEKAN BATAK RABIT,8,HILIR PERAK,PERAK,,,26600,26600
PEKAN BATU DUA PULOH,8,HILIR PERAK,PERAK,,,26600,26600
PEKAN CHIKUS,8,HILIR PERAK,PERAK,36750,36750,"36750, 26600",36750
PEKAN DEGONG,8,HILIR PERAK,PERAK,,,26600,26600
PEKAN HUTAN MELINTANG,8,HILIR PERAK,PERAK,"36400, 33200","36400, 31100, 33200","36400, 26600, 33200","36400, 33200"
PEKAN JENDARATA,8,HILIR PERAK,PERAK,,,26600,26600
PEKAN KAMPUNG SUNGAI HAJI MOHAMED,8,HILIR PERAK,PERAK,,,26600,26600
PEKAN LANGKAP,8,HILIR PERAK,PERAK,36700,36700,"36700, 26600",36700
PEKAN SELEKOH,8,HILIR PERAK,PERAK,36200,36200,"26600, 36200",36200
PEKAN SIMPANG EMPAT,8,HILIR PERAK,PERAK,34700,"34700, 34500, 34140, 36400","34700, 06650, 26600",34700
PEKAN SIMPANT TIGA (RUNGKUP),8,HILIR PERAK,PERAK,,,26600,26600
PEKAN SUNGAI SUMUN,8,HILIR PERAK,PERAK,36300,36300,"36300, 26600",36300
BELUKAR SEMANG,8,HULU PERAK,PERAK,,,,33200
BELUM,8,HULU PERAK,PERAK,,,,33300
DURIAN PIPIT,8,HULU PERAK,PERAK,,,,33030
GRIK,8,HULU PERAK,PERAK,,,,33300
KENERING,8,HULU PERAK,PERAK,,,,33410
KERUNAI,8,HULU PERAK,PERAK,,,,33310
PENGKALAN HULU,8,HULU PERAK,PERAK,33100,33100,33100,33100
LENGGONG,8,HULU PERAK,PERAK,33400,33400,33400,33400
TEMELONG,8,HULU PERAK,PERAK,,,,33400
TEMENGOR,8,HULU PERAK,PERAK,,,,33300
BANDAR GERIK,8,HULU PERAK,PERAK,33300,33300,33300,33300
BANDAR KELIAN INTAN,8,HULU PERAK,PERAK,33200,33200,33200,33200
BANDAR PENGKALAN HULU,8,HULU PERAK,PERAK,33100,33100,33100,33100
BANDAR LAWN,8,HULU PERAK,PERAK,,,,33410
BANDAR LENGGONG,8,HULU PERAK,PERAK,33400,33400,33400,33400
HULU IJOK,8,SELAMA,PERAK,34100,34100,34100,34100
HULU SELAMA,8,SELAMA,PERAK,34100,34100,34100,34100
SELAMA,8,SELAMA,PERAK,34100,34100,34100,34100
BANDAR SELAMA,8,SELAMA,PERAK,34100,34100,34100,34100
PEKAN RANTAU PANJANG,8,SELAMA,PERAK,"34100, 34140","34100, 34140","71200, 34100, 34140, 26600","34100, 34140"
PEKAN SUNGAI BAYUR,8,SELAMA,PERAK,34100,34100,"34100, 26600",34100
BANDAR,8,PERAK TENGAH,PERAK,,,,36800
BELANJA,8,PERAK TENGAH,PERAK,,,,32800
BOTA,8,PERAK TENGAH,PERAK,32600,32600,32600,32600
JAYA BARU,8,PERAK TENGAH,PERAK,,,,32000
KAMPONG GAJAH,8,PERAK TENGAH,PERAK,,,,36800
KOTA SETIA,8,PERAK TENGAH,PERAK,,36810,71350,36810
LAMBOR KANAN,8,PERAK TENGAH,PERAK,32900,32900,32900,32900
LAMBOR KIRI,8,PERAK TENGAH,PERAK,,,,32600
LAYANG LAYANG,8,PERAK TENGAH,PERAK,,,06900,06900
PASIR PANJANG HULU,8,PERAK TENGAH,PERAK,,,,36800
PASIR SALAK,8,PERAK TENGAH,PERAK,,36800,,36800
PULAU TIGA,8,PERAK TENGAH,PERAK,,36800,,36800
BANDAR BANDAR SERI ISKANDAR,8,PERAK TENGAH,PERAK,,32600,,32600
PEKAN BOTA KANAN,8,PERAK TENGAH,PERAK,32600,32600,"32600, 26600",32600
PEKAN KAMPONG BULOH AKAR,8,PERAK TENGAH,PERAK,,,26600,26600
PEKAN KOTA SETIA,8,PERAK TENGAH,PERAK,,36810,"26600, 71350",36810
PEKAN PARIT,8,PERAK TENGAH,PERAK,32800,32800,"26600, 32800",32800
PEKAN TANJONG BELANJA,8,PERAK TENGAH,PERAK,,,26600,26600
KAMPAR,8,KAMPAR,PERAK,31900,31900,31900,31900
TEJA,8,KAMPAR,PERAK,31900,31900,31900,31900
BANDAR GOPENG,8,KAMPAR,PERAK,"31600, 31900","31600, 31900","31600, 31900","31600, 31900"
BANDAR KAMPAR,8,KAMPAR,PERAK,31900,31900,31900,31900
PEKAN KOTA BAHARU,8,KAMPAR,PERAK,31900,"31600, 31900","71350, 26600, 31900",31900
PEKAN MALIM NAWAR,8,KAMPAR,PERAK,"31700, 31900","31700, 31900","31700, 26600, 31900","31700, 31900"
BENTONG,6,BENTONG,PAHANG,28700,28700,28700,28700
SABAI,6,BENTONG,PAHANG,28700,28700,28700,28700
PELANGAI,6,BENTONG,PAHANG,"28750, 28700","28750, 28700","28750, 28700","28750, 28700"
BANDAR BENTONG,6,BENTONG,PAHANG,28700,28700,28700,28700
BANDAR KARAK,6,BENTONG,PAHANG,"28700, 28600","28700, 28600","28700, 28600","28700, 28600"
PEKAN TELEMONG,6,BENTONG,PAHANG,"28700, 26600","28620, 28700, 26600","28700, 26600","28700, 26600"
HULU TELOM,6,CAMERON HIGHLANDS,PAHANG,,,,39000
RINGLET,6,CAMERON HIGHLANDS,PAHANG,39200,39200,39200,39200
TANAH RATA,6,CAMERON HIGHLANDS,PAHANG,39000,39000,39000,39000
BANDAR TANAH RATA,6,CAMERON HIGHLANDS,PAHANG,39000,39000,39000,39000
PEKAN BERINCHANG,6,CAMERON HIGHLANDS,PAHANG,26600,26600,26600,26600
PEKAN LUBOK TAMANG,6,CAMERON HIGHLANDS,PAHANG,26600,26600,26600,26600
PEKAN RINGLET,6,CAMERON HIGHLANDS,PAHANG,"26600, 39200","26600, 39200","26600, 39200","26600, 39200"
BURAU,6,JERANTUT,PAHANG,"27050, 27000","27050, 27000","27050, 27000","27050, 27000"
ULU CHEKA,6,JERANTUT,PAHANG,27000,27000,27000,27000
ULU TEMBELING,6,JERANTUT,PAHANG,27000,27000,27000,27000
KELOLA,6,JERANTUT,PAHANG,27000,27000,27000,27000
KUALA TEMBELING,6,JERANTUT,PAHANG,"27020, 27000","27020, 27000","27020, 27000","27020, 27000"
PEDAH,6,JERANTUT,PAHANG,27000,27000,27000,27000
PULAU TAWAR,6,JERANTUT,PAHANG,"27050, 27000","27050, 27000","27050, 27000","27050, 27000"
TEBING TINGGI,6,JERANTUT,PAHANG,27000,"26610, 27000",27000,27000
TEH,6,JERANTUT,PAHANG,27000,27000,27000,27000
TEMBELING,6,JERANTUT,PAHANG,27000,27000,27000,27000
BANDAR JERANTUT,6,JERANTUT,PAHANG,27000,27000,27000,27000
PEKAN KUALA TEMBELING,6,JERANTUT,PAHANG,"27000, 27020, 26600","27000, 27020, 26600","27000, 27020, 26600","27000, 27020, 26600"
PEKAN JERANSANG,6,JERANTUT,PAHANG,"27000, 26600","27000, 26600, 27310","27000, 26600","27000, 26600"
BESERAH,6,KUANTAN,PAHANG,26100,26100,26100,26100
ULU LEPAR,6,KUANTAN,PAHANG,,,,26330
ULU KUANTAN,6,KUANTAN,PAHANG,,,,26200
KUALA KUANTAN,6,KUANTAN,PAHANG,,,,25100
PENOR,6,KUANTAN,PAHANG,,,,26060
SUNGAI KARANG,6,KUANTAN,PAHANG,,27620,,27620
BANDAR GAMBANG,6,KUANTAN,PAHANG,"26300, 26310","26300, 26310","26300, 26310","26300, 26310"
BANDAR KUANTAN,6,KUANTAN,PAHANG,,,,25000
PEKAN BESERAH,6,KUANTAN,PAHANG,"26100, 26600","26100, 26600","26100, 26600","26100, 26600"
PEKAN TANJNG LUMPUR,6,KUANTAN,PAHANG,26600,26600,26600,26600
BATU YON,6,LIPIS,PAHANG,,,,27100
BUDU,6,LIPIS,PAHANG,,,,27310
CHEKA,6,LIPIS,PAHANG,,,,27200
GUA,6,LIPIS,PAHANG,,,,27100
ULU JELAI,6,LIPIS,PAHANG,,,,27650
KECHAU,6,LIPIS,PAHANG,,,,27100
KUALA LIPIS,6,LIPIS,PAHANG,27200,27200,27200,27200
PENJOM,6,LIPIS,PAHANG,,27200,,27200
TANJUNG BESAR,6,LIPIS,PAHANG,,27400,,27400
TELANG,6,LIPIS,PAHANG,,,,27100
BANDAR KUALA LIPIS,6,LIPIS,PAHANG,27200,27200,27200,27200
BENTA,6,LIPIS,PAHANG,27300,27300,27300,27300
PADANG TENGKU,6,LIPIS,PAHANG,27100,27100,27100,27100
PEKAN PADANG TENGKU,6,LIPIS,PAHANG,"26600, 27100","26600, 27100","26600, 27100","26600, 27100"
PEKAN TAMAN JELAI,6,LIPIS,PAHANG,26600,"26600, 27200",26600,26600
PEKAN PENJOM,6,LIPIS,PAHANG,26600,"26600, 27200",26600,26600
PEKAN MELA,6,LIPIS,PAHANG,26600,26600,26600,26600
PEKAN KERAMBIT,6,LIPIS,PAHANG,26600,"26600, 27200",26600,26600
PEKAN RPSB KG. PAGAR,6,LIPIS,PAHANG,26600,26600,26600,26600
PEKAN MERAPUH,6,LIPIS,PAHANG,26600,26600,26600,26600
PEKAN KECHAU TUI,6,LIPIS,PAHANG,26600,26600,26600,26600
BEBAR,6,PEKAN,PAHANG,26600,26600,26600,26600
GANCHONG,6,PEKAN,PAHANG,26600,26600,26600,26600
KUALA PAHANG,6,PEKAN,PAHANG,"26600, 26660","26600, 26660","26600, 26660","26600, 26660"
LEPAR,6,PEKAN,PAHANG,26600,26600,26600,26600
PAHANG TUA,6,PEKAN,PAHANG,26600,26600,26600,26600
PEKAN,6,PEKAN,PAHANG,26600,26600,26600,26600
PENYOR,6,PEKAN,PAHANG,26600,26600,26600,26600
PULAU MANIS,6,PEKAN,PAHANG,"26630, 26600","26630, 26600","26630, 26600","26630, 26600"
PULAU RUSA,6,PEKAN,PAHANG,"26630, 26600","26630, 26600","26630, 26600","26630, 26600"
TEMAI,6,PEKAN,PAHANG,26600,26600,26600,26600
BANDAR PEKAN,6,PEKAN,PAHANG,26600,26600,26600,26600
PEKAN KUALA PAHANG,6,PEKAN,PAHANG,"26600, 26660","26600, 26660","26600, 26660","26600, 26660"
PEKAN NENASI,6,PEKAN,PAHANG,"26680, 26600","26680, 26600","26680, 81500, 26600","26680, 26600"
BATU TALAM,6,RAUB,PAHANG,"27600, 27610","27600, 27610","27600, 27610","27600, 27610"
DONG,6,RAUB,PAHANG,"27600, 27400","27600, 27400","27600, 27400","27600, 27400"
GALI,6,RAUB,PAHANG,27600,27600,27600,27600
HULU DONG,6,RAUB,PAHANG,"27600, 27400","27600, 27400","27600, 27400","27600, 27400"
SEGA,6,RAUB,PAHANG,"27600, 27660","27600, 27660","27600, 27660","27600, 27660"
SEMANTAN ULU,6,RAUB,PAHANG,27600,27600,27600,27600
TERAS,6,RAUB,PAHANG,"27670, 27600","27670, 27600","27670, 27600","27670, 27600"
BANDAR RAUB,6,RAUB,PAHANG,27600,27600,27600,27600
BANDAR TERAS,6,RAUB,PAHANG,"27670, 27600","27670, 27600","27670, 27600","27670, 27600"
PEKAN CHEROH,6,RAUB,PAHANG,"27600, 27620, 26600","27600, 27620, 26600","27600, 27620, 26600","27600, 27620, 26600"
PEKAN DONG,6,RAUB,PAHANG,"27600, 26600, 27400","27600, 26600, 27400","27600, 26600, 27400","27600, 26600, 27400"
PEKAN TRANUM,6,RAUB,PAHANG,"27670, 27600, 26600","27670, 27600, 26600","27670, 27600, 26600","27670, 27600, 26600"
BANGAU,6,TEMERLOH,PAHANG,28000,28000,28000,28000
JENDERAK,6,TEMERLOH,PAHANG,28000,28000,28000,28000
KERDAU,6,TEMERLOH,PAHANG,"28020, 28000","28020, 28000","28020, 28000","28020, 28000"
LEBAK,6,TEMERLOH,PAHANG,28000,28000,28000,28000
LIPAT KIJANG,6,TEMERLOH,PAHANG,28000,28000,28000,28000
MENTAKAB,6,TEMERLOH,PAHANG,"28400, 28000","28400, 28000","28400, 28000","28400, 28000"
PERAK,6,TEMERLOH,PAHANG,28000,"34800, 28000",28000,28000
SANGGANG,6,TEMERLOH,PAHANG,28000,28000,28000,28000
SEMANTAN,6,TEMERLOH,PAHANG,28000,28000,28000,28000
SONGSANG,6,TEMERLOH,PAHANG,28000,28000,"96850, 28000",28000
BANDAR MENTAKAB,6,TEMERLOH,PAHANG,"28400, 28000","28400, 28000","28400, 28000","28400, 28000"
BANDAR TEMERLOH,6,TEMERLOH,PAHANG,28000,28000,28000,28000
PEKAN KERDAU,6,TEMERLOH,PAHANG,"28020, 26600, 28000","28020, 26600, 28000","28020, 26600, 28000","28020, 26600, 28000"
PEKAN KUALA KERAU,6,TEMERLOH,PAHANG,"26600, 28000","26600, 28000","26600, 28000","26600, 28000"
LANCHANG,6,TEMERLOH,PAHANG,"28500, 28000","28500, 28000","28500, 28000","28500, 28000"
ENDAU,6,ROMPIN,PAHANG,,,86900,86900
KERATONG,6,ROMPIN,PAHANG,,,,26900
PONTIAN,6,ROMPIN,PAHANG,,,82000,82000
ROMPIN,6,ROMPIN,PAHANG,,,,26800
TIOMAN,6,ROMPIN,PAHANG,,,,26800
BANDAR ROMPIN I,6,ROMPIN,PAHANG,,,,26800
BANDAR ROMPIN II,6,ROMPIN,PAHANG,,,,26800
BANDAR ROMPIN III,6,ROMPIN,PAHANG,,,,26800
BANDAR ROMPIN IV,6,ROMPIN,PAHANG,,,,26800
BANDAR PONTIAN,6,ROMPIN,PAHANG,,,82000,82000
BANDAR ENDAU,6,ROMPIN,PAHANG,,,86900,86900
BANDAR MUADZAM SHAH I,6,ROMPIN,PAHANG,26700,26700,26700,26700
BANDAR MUADZAM SHAH II,6,ROMPIN,PAHANG,26700,26700,26700,26700
BANDAR TIOMAN,6,ROMPIN,PAHANG,,,,26800
PEKAN KUALA ROMPIN,6,ROMPIN,PAHANG,"26600, 26800","26600, 26800","26600, 26800","26600, 26800"
PEKAN TIOMAN,6,ROMPIN,PAHANG,26600,26600,26600,26600
BUKIT SEGUMPAL,6,MARAN,PAHANG,26500,"26500, 28000",26500,26500
CHENOR,6,MARAN,PAHANG,"28100, 26500","28100, 26500","28100, 26500","28100, 26500"
KERTAU,6,MARAN,PAHANG,26500,26500,26500,26500
LUIT,6,MARAN,PAHANG,26500,26500,26500,26500
BANDAR MARAN,6,MARAN,PAHANG,26500,26500,26500,26500
PEKAN CHENOR,6,MARAN,PAHANG,"28100, 26600, 26500","28100, 26600, 26500","28100, 26600, 26500","28100, 26600, 26500"
PEKAN SRI JAYA,6,MARAN,PAHANG,"26600, 26500","26600, 26500","26600, 26500","26600, 26500"
BERA,6,BERA,PAHANG,,,,28200
TRIANG,6,BERA,PAHANG,28310,28310,28310,28310
BANDAR TRIANG,6,BERA,PAHANG,28310,28310,28310,28310
PEKAN DURIAN TAWAR,6,BERA,PAHANG,26600,26600,26600,26600
PEKAN MENGKARAK,6,BERA,PAHANG,"28600, 26600","28200, 28600, 26600","28600, 26600","28600, 26600"
PEKAN MENGKUANG,6,BERA,PAHANG,26600,26600,26600,26600
KAPAR,10,KLANG,SELANGOR,42200,42200,42200,42200
KLANG,10,KLANG,SELANGOR,,,,41400
BANDAR KLANG,10,KLANG,SELANGOR,,,,41000
BANDAR PORT SWETTENHAM,10,KLANG,SELANGOR,,,,42000
BANDAR SULTAN SULAIMAN,10,KLANG,SELANGOR,,42000,,42000
BANDAR SHAH ALAM,10,KLANG,SELANGOR,,,,40000
PEKAN BUKIT KEMUNING,10,KLANG,SELANGOR,,40460,26600,40460
PEKAN KAPAR,10,KLANG,SELANGOR,42200,42200,"26600, 42200",42200
PEKAN MERU,10,KLANG,SELANGOR,41050,41050,"41050, 26600",41050
PEKAN TELOK MENEGUN,10,KLANG,SELANGOR,,,26600,26600
PEKAN BATU EMPAT,10,KLANG,SELANGOR,,,26600,26600
PEKAN PANDAMARAN,10,KLANG,SELANGOR,,42000,"26600, 26500",42000
BANDAR,10,KUALA LANGAT,SELANGOR,,,,42700
BATU,10,KUALA LANGAT,WP KUALA LUMPUR,,,,42800
JUGRA,10,KUALA LANGAT,SELANGOR,,,,42960
KELANANG,10,KUALA LANGAT,SELANGOR,,42700,,42700
MORIB,10,KUALA LANGAT,SELANGOR,,42700,,42700
TANJONG DUABELAS,10,KUALA LANGAT,SELANGOR,,,,42700
TELOK PANGLIMA GARANG,10,KUALA LANGAT,SELANGOR,42500,42500,42500,42500
BANDAR BANTING,10,KUALA LANGAT,SELANGOR,42700,42700,42700,42700
BANDAR JENJAROM,10,KUALA LANGAT,SELANGOR,42600,42600,42600,42600
BANDAR SIJANGKANG,10,KUALA LANGAT,SELANGOR,,42500,,42500
BANDAR TANJONG SEPAT,10,KUALA LANGAT,SELANGOR,,,,42800
BANDAR TELOK PANGLIMA GARANG,10,KUALA LANGAT,SELANGOR,42500,42500,42500,42500
PEKAN BATU,10,KUALA LANGAT,WP KUALA LUMPUR,,,26600,26600
PEKAN BUKIT CHANGGANG,10,KUALA LANGAT,SELANGOR,,42700,26600,42700
PEKAN CHODOI,10,KUALA LANGAT,SELANGOR,,,26600,26600
PEKAN JENJAROM,10,KUALA LANGAT,SELANGOR,42600,42600,"42600, 26600",42600
PEKAN KANCHONG,10,KUALA LANGAT,SELANGOR,,,26600,26600
PEKAN KANCHONG DARAT,10,KUALA LANGAT,SELANGOR,,,26600,26600
PEKAN KELANANG BATU ENAM,10,KUALA LANGAT,SELANGOR,,42700,26600,42700
PEKAN MORIB,10,KUALA LANGAT,SELANGOR,,42700,26600,42700
PEKAN SIJANGKANG,10,KUALA LANGAT,SELANGOR,,42500,26600,42500
PEKAN PERMATANG PASIR,10,KUALA LANGAT,SELANGOR,,42700,"34750, 26600",42700
PEKAN SIMPANG MORIB,10,KUALA LANGAT,SELANGOR,,42700,"34700, 26600",42700
PEKAN SUNGAI MANGGIS,10,KUALA LANGAT,SELANGOR,,,26600,26600
PEKAN SUNGAI RABA,10,KUALA LANGAT,SELANGOR,,,26600,26600
PEKAN TANJONG DUABELAS,10,KUALA LANGAT,SELANGOR,,,26600,26600
PEKAN TELOK DATOK,10,KUALA LANGAT,SELANGOR,,,26600,26600
PEKAN TONGKAH,10,KUALA LANGAT,SELANGOR,,,26600,26600
PEKAN TELOK,10,KUALA LANGAT,SELANGOR,,,26600,26600
API-API,10,KUALA SELANGOR,SELANGOR,45000,45000,45000,45000
IJOK,10,KUALA SELANGOR,SELANGOR,45000,"45000, 45609",45000,45000
JERAM,10,KUALA SELANGOR,SELANGOR,"45000, 45800","45000, 45800","45000, 45800, 31850","45000, 45800"
KUALA SELANGOR,10,KUALA SELANGOR,SELANGOR,45000,45000,45000,45000
PASANGAN,10,KUALA SELANGOR,SELANGOR,45000,45000,45000,45000
TANJONG KARANG,10,KUALA SELANGOR,SELANGOR,45000,45000,45000,45000
BESTARI JAYA,10,KUALA SELANGOR,SELANGOR,45000,45000,45000,45000
BANDAR KUALA SELANGOR,10,KUALA SELANGOR,SELANGOR,45000,45000,45000,45000
BANDAR TANJONG KARANG,10,KUALA SELANGOR,SELANGOR,45000,45000,45000,45000
PEKAN ASAM JAWA,10,KUALA SELANGOR,SELANGOR,45000,45000,"45000, 26600",45000
PEKAN BUKIT ROTAN,10,KUALA SELANGOR,SELANGOR,45000,"45000, 45620","45000, 26600",45000
PEKAN JERAM,10,KUALA SELANGOR,SELANGOR,"45000, 45800","45000, 45800","45000, 45800, 31850, 26600","45000, 45800"
PEKAN KAMPONG KUANTAN,10,KUALA SELANGOR,SELANGOR,45000,45000,"45000, 26600",45000
PEKAN KUALA SUNGAI BULOH,10,KUALA SELANGOR,SELANGOR,45000,"45000, 45800","45000, 26600",45000
PEKAN PASIR PENAMPANG,10,KUALA SELANGOR,SELANGOR,"45000, 68000","45000, 68000","45000, 89500, 26600, 68000","45000, 68000"
PEKAN SIMPANG TIGA,10,KUALA SELANGOR,SELANGOR,45000,"45000, 45600","34700, 45000, 26600",45000
PEKAN TANJONG KARANG,10,KUALA SELANGOR,SELANGOR,45000,45000,"45000, 26600",45000
PEKAN BUKTI BELIMBING,10,KUALA SELANGOR,SELANGOR,45000,45000,"45000, 26600",45000
PEKAN BUKIT TALANG,10,KUALA SELANGOR,SELANGOR,45000,45000,"45000, 26600",45000
PEKAN KAMBUNG BARU HULU TIRAM BURUK,10,KUALA SELANGOR,SELANGOR,45000,45000,"45000, 81800, 26600",45000
PEKAN PARTI MAHANG,10,KUALA SELANGOR,SELANGOR,45000,45000,"45000, 26600",45000
PEKAN SIMPANG TIGA IJOK,10,KUALA SELANGOR,SELANGOR,45000,"45000, 45609, 45600","34700, 45000, 26600",45000
PEKAN SUNGAI SEMBILANG,10,KUALA SELANGOR,SELANGOR,45000,45000,"45000, 26600",45000
PEKAN TAMAN PKNS,10,KUALA SELANGOR,SELANGOR,45000,45000,"45000, 26600",45000
PEKAN TAMBAK JAWA,10,KUALA SELANGOR,SELANGOR,45000,45000,"45000, 26600",45000
PEKAN BESTARI JAYA,10,KUALA SELANGOR,SELANGOR,45000,45000,"45000, 26600",45000
BAGAN NAKHODA OMAR,10,SABAK BERNAM,SELANGOR,45200,45200,45200,45200
PANCANG BEDENA,10,SABAK BERNAM,SELANGOR,45200,45200,45200,45200
PASIR PANJANG,10,SABAK BERNAM,SELANGOR,45200,"45200, 45400",45200,45200
SABAK,10,SABAK BERNAM,SELANGOR,45200,45200,45200,45200
SUNGAI PANJANG,10,SABAK BERNAM,SELANGOR,45200,"45300, 45200",45200,45200
PEKAN BAGAN TERAP,10,SABAK BERNAM,SELANGOR,"45209, 45200","45209, 45200","45209, 45200, 26600","45209, 45200"
PEKAN PARIT ENAM,10,SABAK BERNAM,SELANGOR,45200,45200,"45200, 26600, 32800",45200
PEKAN PARIT SEMBILAN,10,SABAK BERNAM,SELANGOR,45200,45200,"45200, 26600, 32800",45200
PEKAN SEKINCHAN,10,SABAK BERNAM,SELANGOR,"45200, 45400","45200, 45400","45200, 26600, 45400","45200, 45400"
PEKAN SABAK,10,SABAK BERNAM,SELANGOR,45200,45200,"45200, 26600",45200
PEKAN SUNGAI AIR TAWAR,10,SABAK BERNAM,SELANGOR,45200,"45200, 45100","45200, 26600",45200
PEKAN SUNGAI SEPINTAS,10,SABAK BERNAM,SELANGOR,45200,45200,"45200, 26600",45200
PEKAN BAGAN NAKHODA OMAR,10,SABAK BERNAM,SELANGOR,45200,45200,"45200, 26600",45200
PEKAN PARIT BARU,10,SABAK BERNAM,SELANGOR,45200,"45200, 45100","45200, 26600, 32800",45200
PEKAN PASIR PANJANG,10,SABAK BERNAM,SELANGOR,45200,"45200, 45400","45200, 26600",45200
PEKAN SEKINCHAN SITE A,10,SABAK BERNAM,SELANGOR,"45200, 45400","45200, 45400","45200, 26600, 45400","45200, 45400"
PEKAN SUNGAI BESAR,10,SABAK BERNAM,SELANGOR,"45300, 45200","45300, 45200","45300, 45200, 26600","45300, 45200"
PEKAN SUNGAI HAJI DORANI,10,SABAK BERNAM,SELANGOR,45200,45200,"45200, 26600",45200
PEKAN SUNGAI NIBONG,10,SABAK BERNAM,SELANGOR,45200,45200,"45200, 26600",45200
BERANANG,10,ULU LANGAT,SELANGOR,43700,43700,43700,43700
CHERAS,10,ULU LANGAT,WP KUALA LUMPUR,,,,43200
AMPANG,10,ULU LANGAT,WP KUALA LUMPUR,,,68000,68000
HULU LANGAT,10,ULU LANGAT,SELANGOR,43100,43100,43100,43100
HULU SEMENYIH,10,ULU LANGAT,SELANGOR,43500,43500,43500,43500
KAJANG,10,ULU LANGAT,SELANGOR,43000,43000,43000,43000
SEMENYIH,10,ULU LANGAT,SELANGOR,43500,43500,43500,43500
BANDAR CHERAS,10,ULU LANGAT,SELANGOR,,,,43200
BANDAR ULU LANGAT,10,ULU LANGAT,SELANGOR,,,,43200
BANDAR KAJANG,10,ULU LANGAT,SELANGOR,43000,43000,43000,43000
BANDAR SEMENYIH,10,ULU LANGAT,SELANGOR,43500,43500,43500,43500
BANDAR AMPANG,10,ULU LANGAT,SELANGOR,68000,68000,68000,68000
BANDAR BALAKONG,10,ULU LANGAT,SELANGOR,,,,43300
"BANDAR BATU 9, CHERAS",10,ULU LANGAT,SELANGOR,,,,43200
"BANDAR BATU 18, SEMENYIH",10,ULU LANGAT,SELANGOR,43500,43500,43500,43500
"BANDAR BATU 26, BERANANG",10,ULU LANGAT,SELANGOR,43700,43700,43700,43700
PEKAN BERANANG,10,ULU LANGAT,SELANGOR,43700,43700,"43700, 26600",43700
PEKAN KACAU,10,ULU LANGAT,SELANGOR,,,26600,26600
PEKAN TARUN,10,ULU LANGAT,SELANGOR,,,26600,26600
PEKAN BANGI LAMA,10,ULU LANGAT,SELANGOR,,43000,26600,43000
"PEKAN BATU 23, SUNGAI LALANG",10,ULU LANGAT,SELANGOR,,,26600,26600
"PEKAN BATU 26, BERANANG",10,ULU LANGAT,SELANGOR,43700,43700,"43700, 26600",43700
PEKAN BUKIT SUNGAI RAYA,10,ULU LANGAT,SELANGOR,,,26600,26600
PEKAN CHERAS,10,ULU LANGAT,SELANGOR,,,26600,26600
PEKAN DESA RAYA,10,ULU LANGAT,SELANGOR,,,26600,26600
PEKAN DUSUN TUA ULU LANGAT,10,ULU LANGAT,SELANGOR,,,26600,26600
PEKAN KAJANG,10,ULU LANGAT,SELANGOR,43000,43000,"43000, 26600",43000
"PEKAN KAMPONG PASIR, BATU 14, SEMENYIH",10,ULU LANGAT,SELANGOR,43500,43500,"26600, 43500",43500
PEKAN KAMPONG SUNGAI TANGKAS,10,ULU LANGAT,SELANGOR,,,26600,26600
PEKAN RUMAH MURAH SUNGAI LUI,10,ULU LANGAT,SELANGOR,,,26600,26600
PEKAN SEMENYIH,10,ULU LANGAT,SELANGOR,43500,43500,"26600, 43500",43500
PEKAN SIMPANG BALAK,10,ULU LANGAT,SELANGOR,,,"34700, 26600","34700, 26600"
PEKAN SRI NANDING,10,ULU LANGAT,SELANGOR,,,26600,26600
PEKAN SUNGAI KEMBONG BERANANG,10,ULU LANGAT,SELANGOR,43700,43700,"43700, 26600",43700
PEKAN SUNGAI LUI,10,ULU LANGAT,SELANGOR,,,26600,26600
PEKAN SUNGAI MAKAU,10,ULU LANGAT,SELANGOR,,,26600,26600
BATANG KALI,10,ULU SELANGOR,SELANGOR,,44200,,44200
BULUH TELOR,10,ULU SELANGOR,SELANGOR,,,,44000
AMPANG PECHAH,10,ULU SELANGOR,SELANGOR,68000,68000,68000,68000
ULU BERNAM,10,ULU SELANGOR,SELANGOR,,,36500,36500
ULU YAM,10,ULU SELANGOR,SELANGOR,,,,44300
KALUMPANG,10,ULU SELANGOR,SELANGOR,,44100,,44100
KERLING,10,ULU SELANGOR,SELANGOR,44100,44100,44100,44100
KUALA KALUMPANG,10,ULU SELANGOR,SELANGOR,,44100,,44100
PERETAK,10,ULU SELANGOR,SELANGOR,,,,44000
RASA,10,ULU SELANGOR,SELANGOR,44200,44200,44200,44200
SERENDAH,10,ULU SELANGOR,SELANGOR,48200,48200,48200,48200
SUNGAI GUMUT,10,ULU SELANGOR,SELANGOR,,,,44000
SUNGAI TINGGI,10,ULU SELANGOR,SELANGOR,,,,44200
BANDAR ULU YAM,10,ULU SELANGOR,SELANGOR,,,,44300
BANDAR ULU YAM BAHARU,10,ULU SELANGOR,SELANGOR,,,,44300
BANDAR KALUMPANG,10,ULU SELANGOR,SELANGOR,,44100,,44100
BANDAR KUALA KUBU BAHARU,10,ULU SELANGOR,SELANGOR,,,,44000
BANDAR RASA,10,ULU SELANGOR,SELANGOR,44200,44200,44200,44200
BANDAR SERENDAH,10,ULU SELANGOR,SELANGOR,48200,48200,48200,48200
BANDAR BATANG KALI,10,ULU SELANGOR,SELANGOR,,44200,,44200
BANDAR ULU BERNAM I,10,ULU SELANGOR,SELANGOR,,,36500,36500
BANDAR ULU BERNAM II,10,ULU SELANGOR,SELANGOR,,,36500,36500
BANDAR SUNGAI CHIK,10,ULU SELANGOR,SELANGOR,,,,44300
PEKAN KERLING,10,ULU SELANGOR,SELANGOR,44100,44100,"26600, 44100",44100
PEKAN PERETAK,10,ULU SELANGOR,SELANGOR,,,26600,26600
PEKAN SIMPANG SUNGAI CHOH,10,ULU SELANGOR,SELANGOR,,,"34700, 26600","34700, 26600"
BUKIT RAJA,10,PETALING,SELANGOR,,,,40170
DAMANSARA,10,PETALING,SELANGOR,,,,52200
PETALING,10,PETALING,WP KUALA LUMPUR,,,,46200
SUNGAI BULOH,10,PETALING,SELANGOR,,45800,,45800
BANDAR PETALING JAYA,10,PETALING,WP KUALA LUMPUR,,,,46200
BANDAR SHAH ALAM,10,PETALING,SELANGOR,,,,40250
BANDAR DAMANSARA,10,PETALING,SELANGOR,,,,46350
BANDAR GLENMARIE,10,PETALING,SELANGOR,,,,40250
BANDAR PETALING JAYA SELATAN,10,PETALING,SELANGOR,,,,46000
BANDAR SAUJANA,10,PETALING,SELANGOR,,40150,,40150
BANDAR SRI DAMANSARA,10,PETALING,SELANGOR,,,,52200
BANDAR SUBANG JAYA,10,PETALING,SELANGOR,47500,47500,47500,47500
BANDAR SUNWAY,10,PETALING,SELANGOR,,47500,,47500
PEKAN BATU TIGA,10,PETALING,SELANGOR,,40150,26600,40150
PEKAN MERBAU SEMPAK,10,PETALING,SELANGOR,,,"94000, 26610, 26600","94000, 26610, 26600"
PEKAN PUCHONG,10,PETALING,SELANGOR,,,26600,26600
PEKAN SERDANG,10,PETALING,SELANGOR,,,"09800, 26600","09800, 26600"
PEKAN SUNGAI BULOH,10,PETALING,SELANGOR,,45800,26600,45800
PEKAN SUNGAI PENCHALA,10,PETALING,WP KUALA LUMPUR,,,26600,26600
PEKAN CEMPAKA,10,PETALING,SELANGOR,,,"23100, 26600","23100, 26600"
PEKAN COUNTRY HEIGHT,10,PETALING,SELANGOR,,,26600,26600
PEKAN DESA PUCHONG,10,PETALING,SELANGOR,,,26600,26600
PEKAN HICOM,10,PETALING,SELANGOR,,,26600,26600
PEKAN KAYU ARA,10,PETALING,SELANGOR,,,26600,26600
PEKAN KINRARA,10,PETALING,SELANGOR,,,26600,26600
PEKAN BARU HICOM,10,PETALING,SELANGOR,,,26600,26600
PEKAN BARU SUBANG,10,PETALING,SELANGOR,,,26600,26600
PEKAN BARU SUNGAI BESI,10,PETALING,SELANGOR,,,26600,26600
PEKAN BARU SUNGAI BULOH,10,PETALING,SELANGOR,,45800,26600,45800
PEKAN BARU PENAGA,10,PETALING,SELANGOR,,,"13100, 26600","13100, 26600"
PEKAN PUCHONG JAYA,10,PETALING,SELANGOR,,,26600,26600
PEKAN PUCHONG PERDANA,10,PETALING,SELANGOR,47150,47150,"47150, 26600",47150
PEKAN SUBANG,10,PETALING,SELANGOR,,40150,26600,40150
PEKAN SUBANG JAYA,10,PETALING,SELANGOR,47500,"47500, 40150","26600, 47500",47500
ULU KELANG,10,GOMBAK,WP KUALA LUMPUR,,,,68000
RAWANG,10,GOMBAK,SELANGOR,48000,48000,48000,48000
SETAPAK,10,GOMBAK,WP KUALA LUMPUR,,,,53100
BANDAR BATU ARANG,10,GOMBAK,SELANGOR,48100,48100,48100,48100
BANDAR RAWANG,10,GOMBAK,SELANGOR,48000,48000,48000,48000
BANDAR GOMBAK SETIA,10,GOMBAK,SELANGOR,,,,53100
BANDAR ULU KELANG,10,GOMBAK,SELANGOR,,,,68000
BANDAR KEPONG,10,GOMBAK,SELANGOR,,,,52100
BANDAR KUNDANG,10,GOMBAK,SELANGOR,,,,48050
BANDAR SELAYANG,10,GOMBAK,SELANGOR,,,06900,06900
BANDAR SUNGAI BULOH,10,GOMBAK,SELANGOR,,45800,,45800
BANDAR SUNGAI PUSU,10,GOMBAK,SELANGOR,,,,53000
PEKAN BATU 20,10,GOMBAK,SELANGOR,,,26600,26600
PEKAN KUANG,10,GOMBAK,SELANGOR,,48050,26600,48050
PEKAN MIMALAND,10,GOMBAK,SELANGOR,,,26600,26600
PEKAN PENGKALAN KUNDANG,10,GOMBAK,SELANGOR,,48050,26600,48050
PEKAN SUNGAI BULOH,10,GOMBAK,SELANGOR,,45800,26600,45800
PEKAN TEMPLER,10,GOMBAK,SELANGOR,,,26600,26600
DENGKIL,10,SEPANG,SELANGOR,"43900, 43800","43900, 43800","43900, 43800","43900, 43800"
SEPANG,10,SEPANG,SELANGOR,43900,43900,43900,43900
BANDAR SEPANG,10,SEPANG,SELANGOR,43900,43900,43900,43900
BANDAR BARU BANGI,10,SEPANG,SELANGOR,"43650, 43900","43650, 43900","43650, 43900","43650, 43900"
BANDAR BARU SALAK TINGGI,10,SEPANG,SELANGOR,43900,43900,43900,43900
BANDAR LAPANGAN TERBANG ANTARABANGSA SEPANG,10,SEPANG,SELANGOR,43900,43900,43900,43900
BANDAR SUNGAI MERAB,10,SEPANG,SELANGOR,43900,"43000, 43900",43900,43900
PEKAN DENGKIL,10,SEPANG,SELANGOR,"43900, 43800","43900, 43800","43800, 26600, 43900","43900, 43800"
PEKAN SALAK,10,SEPANG,SELANGOR,43900,43900,"43900, 26600",43900
PEKAN SUNGAI PELEK,10,SEPANG,SELANGOR,"43950, 43900","43950, 43900","43950, 43900, 26600","43950, 43900"
PEKAN BATU 1 SEPANG,10,SEPANG,SELANGOR,43900,43900,"43900, 26600",43900
PEKAN BUKIT BISA,10,SEPANG,SELANGOR,43900,43900,"43900, 26600",43900
PEKAN BUKIT PRANG,10,SEPANG,SELANGOR,43900,43900,"43900, 26600",43900
PEKAN DATO BAKAR BAGINDA,10,SEPANG,SELANGOR,43900,43900,"43900, 26600",43900
PEKAN BARU SALAK TINGGI,10,SEPANG,SELANGOR,43900,43900,"43900, 26600",43900
PEKAN SUNGAI MERAB,10,SEPANG,SELANGOR,43900,"43000, 43900","43900, 26600",43900
PEKAN TANJUNG MAS,10,SEPANG,SELANGOR,43900,43900,"43900, 26600",43900
AMPANG,,,WP KUALA LUMPUR,,,68000,68000
BATU,,,WP KUALA LUMPUR,,,,52100
CHERAS,,,WP KUALA LUMPUR,,,,56000
ULU KELANG,,,WP KUALA LUMPUR,,,,68000
KUALA LUMPUR,,,WP KUALA LUMPUR,,,,50450
PETALING,,,WP KUALA LUMPUR,,,,46675
SETAPAK,,,WP KUALA LUMPUR,,,,53300
BANDAR KUALA LUMPUR,,,WP KUALA LUMPUR,,,,50450
BANDAR PETALING JAYA,,,WP KUALA LUMPUR,,,,46200
BANDAR BANDAR BAHARU SUNGAI BESI,,,WP KUALA LUMPUR,,,34950,34950
PEKAN BATU,,,WP KUALA LUMPUR,,,26600,26600
PEKAN BATU CAVES,,,WP KUALA LUMPUR,,,"26600, 68100","26600, 68100"
PEKAN KEPONG,,,WP KUALA LUMPUR,52100,52100,"52100, 26600",52100
PEKAN KUALA PAUH,,,WP KUALA LUMPUR,,,26600,26600
PEKAN PETALING,,,WP KUALA LUMPUR,,,26600,26600
PEKAN SALAK SOUTH,,,WP KUALA LUMPUR,,,26600,26600
PEKAN SUNGAI PENCHALA,,,WP KUALA LUMPUR,,,26600,26600
BANDAR PUTRAJAYA,16,W. P. PUTRAJAYA,WP PUTRAJAYA,,,,62100
GELAMI LEMI,5,JELEBU,NEGERI SEMBILAN,,,,71600
KENABOI,5,JELEBU,NEGERI SEMBILAN,,,,71650
KUALA KELAWANG,5,JELEBU,NEGERI SEMBILAN,,,,71600
PERADONG,5,JELEBU,NEGERI SEMBILAN,,,27400,27400
PERTANG,5,JELEBU,NEGERI SEMBILAN,,72300,,72300
TERIANG HILIR,5,JELEBU,NEGERI SEMBILAN,,,,72400
BANDAR KUALA KELAWANG,5,JELEBU,NEGERI SEMBILAN,,,,71600
PEKAN KUALA KELAWANG,5,JELEBU,NEGERI SEMBILAN,,,26600,26600
PEKAN PERTANG,5,JELEBU,NEGERI SEMBILAN,,72300,26600,72300
PEKAN TITI,5,JELEBU,NEGERI SEMBILAN,,71650,26600,71650
PEKAN SIMPANG DURIAN,5,JELEBU,NEGERI SEMBILAN,72400,72400,"34700, 72400, 26600",72400
PEKAN SIMPANG PERTANG,5,JELEBU,NEGERI SEMBILAN,72300,72300,"34700, 72300, 26600",72300
PEKAN PETALING,5,JELEBU,WP KUALA LUMPUR,,,26600,26600
PEKAN SUNGAI MUNTOH,5,JELEBU,NEGERI SEMBILAN,,,26600,26600
AMPANG TINGGI,5,KUALA PILAH,NEGERI SEMBILAN,72000,"71500, 72000","72000, 68000",72000
ULU JEMPOL,5,KUALA PILAH,NEGERI SEMBILAN,72000,72000,72000,72000
ULU MUAR,5,KUALA PILAH,NEGERI SEMBILAN,72000,72000,"72000, 84000",72000
JOHOL,5,KUALA PILAH,NEGERI SEMBILAN,72000,72000,72000,72000
JUASSEH,5,KUALA PILAH,NEGERI SEMBILAN,72000,72000,72000,72000
KEPIS,5,KUALA PILAH,NEGERI SEMBILAN,72000,72000,72000,72000
LANGKAP,5,KUALA PILAH,NEGERI SEMBILAN,72000,72000,"72000, 36700",72000
PARIT TINGGI,5,KUALA PILAH,NEGERI SEMBILAN,72000,72000,"72000, 32800",72000
PILAH,5,KUALA PILAH,NEGERI SEMBILAN,72000,72000,72000,72000
SRI MENANTI,5,KUALA PILAH,NEGERI SEMBILAN,72000,72000,72000,72000
TERACHI,5,KUALA PILAH,NEGERI SEMBILAN,72000,72000,72000,72000
BANDAR KUALA PILAH,5,KUALA PILAH,NEGERI SEMBILAN,72000,72000,72000,72000
PEKAN DANGI,5,KUALA PILAH,NEGERI SEMBILAN,72000,72000,"72000, 26600",72000
PEKAN GUNUNG PASIR,5,KUALA PILAH,NEGERI SEMBILAN,72000,"71550, 72000","72000, 26600",72000
PEKAN JOHOL,5,KUALA PILAH,NEGERI SEMBILAN,"72000, 73100","72000, 73100","72000, 73100, 26600","72000, 73100"
PEKAN PARIT TINGGI,5,KUALA PILAH,NEGERI SEMBILAN,72000,72000,"72000, 26600, 32800",72000
PEKAN SENALING,5,KUALA PILAH,NEGERI SEMBILAN,72000,72000,"72000, 26600",72000
PEKAN TANJONG IPOH,5,KUALA PILAH,NEGERI SEMBILAN,72000,72000,"72000, 26600",72000
PEKAN JUASSEH,5,KUALA PILAH,NEGERI SEMBILAN,"72000, 72500","72000, 72500","72000, 72500, 26600","72000, 72500"
PEKAN BUKIT GELUGOR,5,KUALA PILAH,NEGERI SEMBILAN,72000,72000,"72000, 26600, 11700",72000
PEKAN MELANG,5,KUALA PILAH,NEGERI SEMBILAN,72000,72000,"72000, 26600",72000
PEKAN AR MAWANG,5,KUALA PILAH,NEGERI SEMBILAN,72000,72000,"72000, 26600",72000
PEKAN DANGI BARU,5,KUALA PILAH,NEGERI SEMBILAN,72000,72000,"72000, 26600",72000
JIMAH,5,PORT DICKSON,NEGERI SEMBILAN,71000,71000,71000,71000
LINGGI,5,PORT DICKSON,NEGERI SEMBILAN,"71000, 71150","71000, 71150","71000, 71150","71000, 71150"
PORT DICKSON,5,PORT DICKSON,NEGERI SEMBILAN,71000,71000,71000,71000
SI RUSA,5,PORT DICKSON,NEGERI SEMBILAN,"71050, 71000","71050, 71000","71050, 71000","71050, 71000"
BANDAR PORT DICKSON,5,PORT DICKSON,NEGERI SEMBILAN,71000,71000,71000,71000
BANDAR TELUK KEMANG,5,PORT DICKSON,NEGERI SEMBILAN,71000,"71050, 71000",71000,71000
PEKAN LUKUT,5,PORT DICKSON,NEGERI SEMBILAN,"71000, 71010","71000, 71010","71000, 71010, 26600","71000, 71010"
PEKAN PASIR PANJANG,5,PORT DICKSON,NEGERI SEMBILAN,71000,"71000, 71250","71000, 26600",71000
PEKAN PENGKALAN KEMPAS,5,PORT DICKSON,NEGERI SEMBILAN,71000,"71000, 71150","71000, 26600",71000
PEKAN CHUAH,5,PORT DICKSON,NEGERI SEMBILAN,71000,71000,"71000, 26600",71000
PEKAN PORT DICKSON,5,PORT DICKSON,NEGERI SEMBILAN,71000,71000,"71000, 26600",71000
PEKAN TELUK KEMANG,5,PORT DICKSON,NEGERI SEMBILAN,71000,"71050, 71000","71000, 26600",71000
PEKAN BUKIT PELANDUK,5,PORT DICKSON,NEGERI SEMBILAN,71000,71000,"71000, 26600",71000
PEKAN LINGGI,5,PORT DICKSON,NEGERI SEMBILAN,"71000, 71150","71000, 71150","71000, 26600, 71150","71000, 71150"
PEKAN AIR KUNING,5,PORT DICKSON,NEGERI SEMBILAN,71000,71000,"71000, 26600",71000
PEKAN SUNGAI MENYALA,5,PORT DICKSON,NEGERI SEMBILAN,71000,71000,"71000, 26600",71000
PEKAN BAGAN PINANG,5,PORT DICKSON,NEGERI SEMBILAN,71000,71000,"71000, 26600",71000
PEKAN TANAH MERAH UTARA,5,PORT DICKSON,NEGERI SEMBILAN,71000,71000,"71000, 26600, 17500",71000
PEKAN TANAH MERAH SELATAN,5,PORT DICKSON,NEGERI SEMBILAN,71000,71000,"71000, 26600, 17500",71000
PEKAN JEMIMA,5,PORT DICKSON,NEGERI SEMBILAN,71000,71000,"71000, 26600",71000
BATU HAMPAR,5,REMBAU,NEGERI SEMBILAN,71300,"71550, 71300","94000, 71300",71300
BONGEK,5,REMBAU,NEGERI SEMBILAN,71300,71300,"94000, 71300",71300
CHEMBONG,5,REMBAU,NEGERI SEMBILAN,71300,71300,"94000, 71300",71300
CHENGKAU,5,REMBAU,NEGERI SEMBILAN,71300,71300,"94000, 71300",71300
GADONG,5,REMBAU,NEGERI SEMBILAN,71300,71300,"71300, 94000, 27400",71300
KUNDOR,5,REMBAU,NEGERI SEMBILAN,71300,71300,"94000, 71300",71300
LEGONG ILIR,5,REMBAU,NEGERI SEMBILAN,71300,71300,"94000, 71300",71300
LEGONG ULU,5,REMBAU,NEGERI SEMBILAN,71300,71300,"94000, 71300",71300
MIKU,5,REMBAU,NEGERI SEMBILAN,71300,71300,"94000, 71300",71300
NERASAU,5,REMBAU,NEGERI SEMBILAN,71300,71300,"94000, 44200, 71300",71300
PEDAS,5,REMBAU,NEGERI SEMBILAN,"71400, 71300","71400, 71300","94000, 71400, 71300","71400, 71300"
PILIN,5,REMBAU,NEGERI SEMBILAN,71300,71300,"94000, 71300",71300
SELEMAK,5,REMBAU,NEGERI SEMBILAN,71300,71300,"94000, 71300",71300
SEMERBOK,5,REMBAU,NEGERI SEMBILAN,71300,71300,"94000, 08400, 71300",71300
SPRI,5,REMBAU,NEGERI SEMBILAN,71300,71300,"94000, 71300",71300
TANJONG KELING,5,REMBAU,NEGERI SEMBILAN,71300,71300,"94000, 71300",71300
TITIAN BINTANGOR,5,REMBAU,NEGERI SEMBILAN,71300,"71650, 71300, 71150","94000, 96500, 71300, 33200",71300
BANDAR REMBAU,5,REMBAU,NEGERI SEMBILAN,71300,71300,"94000, 71300",71300
PEKAN KAMPONG BATU,5,REMBAU,NEGERI SEMBILAN,71300,71300,"94000, 26600, 71300",71300
PEKAN KOTA,5,REMBAU,NEGERI SEMBILAN,"71350, 71300","71350, 71300","94000, 71350, 26600, 71300","71350, 71300"
PEKAN LUBOK CHINA,5,REMBAU,NEGERI SEMBILAN,71300,71300,"94000, 26600, 71300",71300
PEKAN PEDAS,5,REMBAU,NEGERI SEMBILAN,"71400, 71300","71400, 71300","94000, 71400, 26600, 71300","71400, 71300"
PEKAN CHEMBONG,5,REMBAU,NEGERI SEMBILAN,71300,71300,"94000, 26600, 71300",71300
PEKAN REMBAU,5,REMBAU,NEGERI SEMBILAN,71300,71300,"94000, 26600, 71300",71300
PEKAN CHENGKAU,5,REMBAU,NEGERI SEMBILAN,71300,71300,"94000, 26600, 71300",71300
PEKAN SERI KOTA,5,REMBAU,NEGERI SEMBILAN,"71350, 71300","71350, 71300","94000, 71350, 26600, 71300","71350, 71300"
PEKAN SERI KENDONG,5,REMBAU,NEGERI SEMBILAN,71300,"71350, 71300","71300, 94000, 26600, 27400",71300
PEKAN MERBAU SEMBILAN,5,REMBAU,NEGERI SEMBILAN,71300,71300,"94000, 26610, 26600, 71300",71300
AMPANGAN,5,SEREMBAN,NEGERI SEMBILAN,,,68000,68000
LABU,5,SEREMBAN,NEGERI SEMBILAN,,,,71900
LENGGENG,5,SEREMBAN,NEGERI SEMBILAN,,71750,,71750
PANTAI,5,SEREMBAN,NEGERI SEMBILAN,71770,71770,71770,71770
RANTAU,5,SEREMBAN,NEGERI SEMBILAN,71200,71200,71200,71200
RASAH,5,SEREMBAN,NEGERI SEMBILAN,,,44200,44200
SEREMBAN,5,SEREMBAN,NEGERI SEMBILAN,,,,70000
SETUL,5,SEREMBAN,NEGERI SEMBILAN,,,,71800
BANDAR SEREMBAN,5,SEREMBAN,NEGERI SEMBILAN,,,,70000
BANDAR SEREMBAN 3,5,SEREMBAN,NEGERI SEMBILAN,70300,70300,70300,70300
BANDAR SEREMBAN UTAMA,5,SEREMBAN,NEGERI SEMBILAN,,,,70000
BANDAR MANTIN UTAMA,5,SEREMBAN,NEGERI SEMBILAN,71700,71700,71700,71700
BANDAR BARU ENSTEK,5,SEREMBAN,NEGERI SEMBILAN,,71760,,71760
BANDAR BARU KOTA SRI MAS,5,SEREMBAN,NEGERI SEMBILAN,71350,71350,71350,71350
BANDAR NILAI UTAMA,5,SEREMBAN,NEGERI SEMBILAN,71800,71800,71800,71800
BANDAR SRI SENDAYAN,5,SEREMBAN,NEGERI SEMBILAN,,,06900,06900
PEKAN BROGA,5,SEREMBAN,NEGERI SEMBILAN,,71750,26600,71750
PEKAN ULU BERANANG,5,SEREMBAN,NEGERI SEMBILAN,,71750,"43700, 26600",71750
PEKAN LABU,5,SEREMBAN,NEGERI SEMBILAN,,,26600,26600
PEKAN LENGGENG,5,SEREMBAN,NEGERI SEMBILAN,,71750,26600,71750
PEKAN MAMBAU,5,SEREMBAN,NEGERI SEMBILAN,70300,70300,"94000, 70300, 26600",70300
PEKAN NILAI,5,SEREMBAN,NEGERI SEMBILAN,71800,71800,"26600, 71800",71800
PEKAN MANTIN,5,SEREMBAN,NEGERI SEMBILAN,71700,71700,"71700, 26600",71700
PEKAN PAJAM,5,SEREMBAN,NEGERI SEMBILAN,,71700,26600,71700
PEKAN RANTAU,5,SEREMBAN,NEGERI SEMBILAN,71200,71200,"71200, 26600",71200
PEKAN TIROI,5,SEREMBAN,NEGERI SEMBILAN,,,26600,26600
PEKAN PANCOR,5,SEREMBAN,NEGERI SEMBILAN,,,26600,26600
PEKAN TAMAN SEREMBAN,5,SEREMBAN,NEGERI SEMBILAN,70100,70100,"70100, 26600",70100
PEKAN RAHANG BARU,5,SEREMBAN,NEGERI SEMBILAN,70100,70100,"70100, 26600",70100
PEKAN PAROI,5,SEREMBAN,NEGERI SEMBILAN,,,26600,26600
PEKAN BUKIT KEPAYANG,5,SEREMBAN,NEGERI SEMBILAN,,,"06900, 26600","06900, 26600"
PEKAN DUSUN SETIA,5,SEREMBAN,NEGERI SEMBILAN,,,26600,26600
PEKAN SUNGAI GADUT,5,SEREMBAN,NEGERI SEMBILAN,71450,71450,"71450, 26600",71450
PEKAN BUKTI,5,SEREMBAN,NEGERI SEMBILAN,,,26600,26600
PEKAN SIKAMAT,5,SEREMBAN,NEGERI SEMBILAN,,,"08210, 26600","08210, 26600"
PEKAN SETUL,5,SEREMBAN,NEGERI SEMBILAN,,,26600,26600
PEKAN SHAH BANDAR,5,SEREMBAN,NEGERI SEMBILAN,,,26600,26600
PEKAN ULU TEMIANG,5,SEREMBAN,NEGERI SEMBILAN,70200,70200,"70200, 26600",70200
PEKAN PAROI JAYA,5,SEREMBAN,NEGERI SEMBILAN,,,26600,26600
PEKAN RASAH JAYA,5,SEREMBAN,NEGERI SEMBILAN,,,"26600, 44200","26600, 44200"
PEKAN SENAWANG,5,SEREMBAN,NEGERI SEMBILAN,70450,70450,"70450, 26600",70450
PEKAN SEREMBAN JAYA,5,SEREMBAN,NEGERI SEMBILAN,,,26600,26600
AYER KUNING,5,TAMPIN,NEGERI SEMBILAN,,,,73200
GEMAS,5,TAMPIN,NEGERI SEMBILAN,,,,73400
GEMENCHEH,5,TAMPIN,NEGERI SEMBILAN,73200,73200,73200,73200
KERU,5,TAMPIN,NEGERI SEMBILAN,,,,73000
REPAH,5,TAMPIN,NEGERI SEMBILAN,,,,73000
TAMPIN TENGAH,5,TAMPIN,NEGERI SEMBILAN,73000,73000,73000,73000
TEBONG,5,TAMPIN,NEGERI SEMBILAN,,,,73000
BANDAR GEMAS,5,TAMPIN,NEGERI SEMBILAN,,,,73400
BANDAR TAMPIN,5,TAMPIN,NEGERI SEMBILAN,,,,73000
PEKAN AIR KUNING SELATAN,5,TAMPIN,NEGERI SEMBILAN,,,26600,26600
PEKAN BATANG MELAKA,5,TAMPIN,NEGERI SEMBILAN,,73300,26600,73300
PEKAN GEMENCHECH BAHRU,5,TAMPIN,NEGERI SEMBILAN,,,26600,26600
PEKAN REPAH,5,TAMPIN,NEGERI SEMBILAN,,,26600,26600
PEKAN TAMPIN TENGAH,5,TAMPIN,NEGERI SEMBILAN,73000,73000,"73000, 26600",73000
PEKAN AIR KUNING,5,TAMPIN,NEGERI SEMBILAN,,,26600,26600
PEKAN PASIR BESAR,5,TAMPIN,NEGERI SEMBILAN,,,26600,26600
PEKAN REPAH PERMAI,5,TAMPIN,NEGERI SEMBILAN,,,26600,26600
PEKAN REPAH JAYA,5,TAMPIN,NEGERI SEMBILAN,,,26600,26600
JELAI,5,JEMPOL,NEGERI SEMBILAN,,,,73500
KUALA JEMPOL,5,JEMPOL,NEGERI SEMBILAN,,72100,,72100
ROMPIN,5,JEMPOL,NEGERI SEMBILAN,,,,73430
SERTING HILIR,5,JEMPOL,NEGERI SEMBILAN,,72100,,72100
SERTING ULU,5,JEMPOL,NEGERI SEMBILAN,,72300,,72300
BANDAR SERTING,5,JEMPOL,NEGERI SEMBILAN,,,,72100
BANDAR BAHAU,5,JEMPOL,NEGERI SEMBILAN,72100,72100,72100,72100
BANDAR SERI JEMPOL,5,JEMPOL,NEGERI SEMBILAN,,72100,,72100
PEKAN BAHAU,5,JEMPOL,NEGERI SEMBILAN,72100,72100,"72100, 26600",72100
PEKAN BATU KIKIR,5,JEMPOL,NEGERI SEMBILAN,72200,72200,"72200, 26600",72200
PEKAN KUALA JELAI,5,JEMPOL,NEGERI SEMBILAN,,,26600,26600
PEKAN ROMPIN,5,JEMPOL,NEGERI SEMBILAN,,,26600,26600
PEKAN LADANG GEDDES,5,JEMPOL,NEGERI SEMBILAN,,72120,26600,72120
PEKAN MAHSAN,5,JEMPOL,NEGERI SEMBILAN,,,26600,26600
PEKAN SERTING TENGAH,5,JEMPOL,NEGERI SEMBILAN,,,26600,26600
ALAI,4,MELAKA TENGAH,MELAKA,,,,75460
AYER MOLEK,4,MELAKA TENGAH,MELAKA,75460,75460,75460,75460
BACHANG,4,MELAKA TENGAH,MELAKA,,,,75350
BALAI PANJANG,4,MELAKA TENGAH,MELAKA,75250,75250,75250,75250
BATU BERENDAM,4,MELAKA TENGAH,MELAKA,75350,75350,75350,75350
BERTAM,4,MELAKA TENGAH,MELAKA,,,,76450
BUKIT BARU,4,MELAKA TENGAH,MELAKA,75150,75150,75150,75150
BUKIT KATIL,4,MELAKA TENGAH,MELAKA,,75450,,75450
BUKIT LINTANG,4,MELAKA TENGAH,MELAKA,75460,75460,"75460, 33200",75460
BUKIT PIATU,4,MELAKA TENGAH,MELAKA,75150,75150,75150,75150
BUKIT RAMBAI,4,MELAKA TENGAH,MELAKA,75260,75260,75260,75260
CHENG,4,MELAKA TENGAH,MELAKA,,,,75250
DUYONG,4,MELAKA TENGAH,MELAKA,75460,75460,75460,75460
UJONG PASIR,4,MELAKA TENGAH,MELAKA,75050,75050,75050,75050
KANDANG,4,MELAKA TENGAH,MELAKA,75460,75460,75460,75460
KLEBANG BESAR,4,MELAKA TENGAH,MELAKA,75200,75200,75200,75200
KLEBANG KECHIL,4,MELAKA TENGAH,MELAKA,75200,75200,75200,75200
KRUBONG,4,MELAKA TENGAH,MELAKA,,,,75260
PADANG SEMABOK,4,MELAKA TENGAH,MELAKA,75050,75050,75050,75050
PADANG TEMU,4,MELAKA TENGAH,MELAKA,,,,75050
PAYA RUMPUT,4,MELAKA TENGAH,MELAKA,76450,76450,76450,76450
PRINGGIT,4,MELAKA TENGAH,MELAKA,,,,75400
PERNU,4,MELAKA TENGAH,MELAKA,75460,75460,75460,75460
SEMABOK,4,MELAKA TENGAH,MELAKA,75050,75050,75050,75050
SUNGAI UDANG,4,MELAKA TENGAH,MELAKA,76300,76300,76300,76300
TANGGA BATU,4,MELAKA TENGAH,MELAKA,,,,76400
TANJONG KELING,4,MELAKA TENGAH,MELAKA,,,,76400
TANJONG MINYAK,4,MELAKA TENGAH,MELAKA,,,,75260
TELOK MAS,4,MELAKA TENGAH,MELAKA,,,,75460
BANDAR BUKIT BARU,4,MELAKA TENGAH,MELAKA,75150,75150,75150,75150
BANDAR MELAKA,4,MELAKA TENGAH,MELAKA,,,,75400
PEKAN AYER MOLEK,4,MELAKA TENGAH,MELAKA,75460,75460,"26600, 75460",75460
PEKAN BATU BERENDAM,4,MELAKA TENGAH,MELAKA,75350,75350,"75350, 26600",75350
PEKAN BUKIT RAMBAI,4,MELAKA TENGAH,MELAKA,75260,75260,"75260, 26600",75260
PEKAN KANDANG,4,MELAKA TENGAH,MELAKA,75460,75460,"26600, 75460",75460
PEKAN KLEBANG,4,MELAKA TENGAH,MELAKA,,,26600,26600
PEKAN PAYA RUMPUT,4,MELAKA TENGAH,MELAKA,76450,76450,"76450, 26600",76450
PEKAN SUNGAI UDANG,4,MELAKA TENGAH,MELAKA,76300,76300,"76300, 26600",76300
PEKAN TANGGA BATU,4,MELAKA TENGAH,MELAKA,,,26600,26600
PEKAN TANJONG KLING,4,MELAKA TENGAH,MELAKA,76400,76400,"76400, 26600",76400
AYER PANAS,4,JASIN,MELAKA,77000,"77000, 77200, 78000",77000,77000
BATANG MALAKA,4,JASIN,MELAKA,77000,77000,77000,77000
BUKIT SENGGEH,4,JASIN,MELAKA,77000,"77000, 77500",77000,77000
CHABAU,4,JASIN,MELAKA,77000,"77000, 77100","77000, 94000",77000
CHIN CHIN,4,JASIN,MELAKA,77000,77000,77000,77000
CHOHONG,4,JASIN,MELAKA,77000,77000,77000,77000
JASIN,4,JASIN,MELAKA,77000,77000,77000,77000
JUS,4,JASIN,MELAKA,77000,77000,77000,77000
KESANG,4,JASIN,MELAKA,77000,77000,77000,77000
MERLIMAU,4,JASIN,MELAKA,"77000, 77300","77000, 77300","77000, 77300","77000, 77300"
NYALAS,4,JASIN,MELAKA,77000,"77000, 77100",77000,77000
RIM,4,JASIN,MELAKA,77000,77000,77000,77000
SEBATU,4,JASIN,MELAKA,77000,"77000, 77300",77000,77000
SELANDAR,4,JASIN,MELAKA,"77000, 77500","77000, 77500","77000, 77500","77000, 77500"
SEMPANG,4,JASIN,MELAKA,77000,77000,77000,77000
SEMUJOK,4,JASIN,MELAKA,77000,77000,77000,77000
SERKAM,4,JASIN,MELAKA,77000,"77000, 77300",77000,77000
SUNGEI RAMBAI,4,JASIN,MELAKA,77000,77000,77000,77000
TEDONG,4,JASIN,MELAKA,77000,77000,"77000, 27400",77000
UMBAI,4,JASIN,MELAKA,77000,"77000, 77300",77000,77000
BANDAR JASIN,4,JASIN,MELAKA,77000,77000,77000,77000
BANDAR MERLIMAU,4,JASIN,MELAKA,"77000, 77300","77000, 77300","77000, 77300","77000, 77300"
PEKAN ASAHAN,4,JASIN,MELAKA,"77000, 77100","77000, 77100","77000, 77100, 26600","77000, 77100"
PEKAN BATANG MALAKA,4,JASIN,MELAKA,77000,77000,"77000, 26600",77000
PEKAN BEMBAN,4,JASIN,MELAKA,77000,77000,"77000, 26600",77000
PEKAN CHIN CHIN,4,JASIN,MELAKA,77000,77000,"77000, 26600",77000
PEKAN KESANG PAJAK,4,JASIN,MELAKA,77000,77000,"77000, 26600",77000
PEKAN NYALAS,4,JASIN,MELAKA,77000,"77000, 77100","77000, 26600",77000
PEKAN SELANDAR,4,JASIN,MELAKA,"77000, 77500","77000, 77500","77000, 77500, 26600","77000, 77500"
PEKAN SEMPANG BEKOH,4,JASIN,MELAKA,77000,"77000, 77300","77000, 26600",77000
PEKAN SUNGAI RAMBAI,4,JASIN,MELAKA,"77000, 77400","77000, 77400","77000, 77400, 26600","77000, 77400"
AYER PA'ABAS,4,ALOR GAJAH,MELAKA,78000,78000,78000,78000
BELIMBING,4,ALOR GAJAH,MELAKA,78000,78000,78000,78000
BERINGIN,4,ALOR GAJAH,MELAKA,78000,78000,78000,78000
BRISU,4,ALOR GAJAH,MELAKA,78000,78000,78000,78000
DURIAN TUNGGAL,4,ALOR GAJAH,MELAKA,78000,78000,78000,78000
GADEK,4,ALOR GAJAH,MELAKA,78000,78000,78000,78000
KELEMAK,4,ALOR GAJAH,MELAKA,78000,78000,78000,78000
KEMUNING,4,ALOR GAJAH,MELAKA,78000,78000,78000,78000
KUALA LINGGI,4,ALOR GAJAH,MELAKA,78000,"78000, 78200","78000, 71150",78000
KUALA SUNGEI BARU,4,ALOR GAJAH,MELAKA,78000,78000,78000,78000
LENDU,4,ALOR GAJAH,MELAKA,78000,78000,78000,78000
MACHAP,4,ALOR GAJAH,MELAKA,78000,"76100, 78000",78000,78000
MASJID TANAH,4,ALOR GAJAH,MELAKA,"78300, 78000","78300, 78000","78300, 78000","78300, 78000"
MELAKA PINDAH,4,ALOR GAJAH,MELAKA,78000,78000,78000,78000
MELEKEK,4,ALOR GAJAH,MELAKA,78000,78000,78000,78000
PADANG SEBANG,4,ALOR GAJAH,MELAKA,78000,78000,78000,78000
PARIT MELANA,4,ALOR GAJAH,MELAKA,78000,78000,"78000, 32800",78000
PEGOH,4,ALOR GAJAH,MELAKA,78000,78000,78000,78000
PULAU SEBANG,4,ALOR GAJAH,MELAKA,78000,78000,78000,78000
RAMUAN CHINA BESAR,4,ALOR GAJAH,MELAKA,78000,"78300, 78000",78000,78000
RAMUAN CHINA KECHIL,4,ALOR GAJAH,MELAKA,78000,78000,78000,78000
REMBIA,4,ALOR GAJAH,MELAKA,78000,78000,78000,78000
SUNGEI BARU HILIR,4,ALOR GAJAH,MELAKA,78000,78000,78000,78000
SUNGEI BARU TENGAH,4,ALOR GAJAH,MELAKA,78000,78000,78000,78000
SUNGEI BARU ULU,4,ALOR GAJAH,MELAKA,78000,78000,78000,78000
SUNGEI BULOH,4,ALOR GAJAH,MELAKA,78000,78000,78000,78000
SUNGEI PETAI,4,ALOR GAJAH,MELAKA,78000,78000,78000,78000
SUNGEI SIPUT,4,ALOR GAJAH,MELAKA,78000,78000,78000,78000
TABOH NANING,4,ALOR GAJAH,MELAKA,78000,78000,78000,78000
TANJONG RIMAU,4,ALOR GAJAH,MELAKA,78000,78000,78000,78000
TEBONG,4,ALOR GAJAH,MELAKA,78000,"77500, 78000",78000,78000
BANDAR ALOR GAJAH,4,ALOR GAJAH,MELAKA,78000,78000,78000,78000
BANDAR MASJID TANAH,4,ALOR GAJAH,MELAKA,"78300, 78000","78300, 78000","78300, 78000","78300, 78000"
BANDAR PULAU SEBANG,4,ALOR GAJAH,MELAKA,78000,78000,78000,78000
PEKAN DURIAN TUNGGAL,4,ALOR GAJAH,MELAKA,78000,78000,"78000, 26600",78000
PEKAN KUALA SUNGAI BARU,4,ALOR GAJAH,MELAKA,"78000, 78200","78000, 78200","78000, 26600, 78200","78000, 78200"
PEKAN LUBOK CHINA,4,ALOR GAJAH,MELAKA,78000,78000,"78000, 26600",78000
PEKAN REMBIA,4,ALOR GAJAH,MELAKA,78000,78000,"78000, 26600",78000
BAGAN,1,BATU PAHAT,JOHOR,83000,83000,83000,83000
CHAAH BAHRU,1,BATU PAHAT,JOHOR,"83000, 85400","83000, 85400","83000, 85400","83000, 85400"
KAMPONG BAHRU,1,BATU PAHAT,JOHOR,83000,83000,83000,83000
LINAU,1,BATU PAHAT,JOHOR,83000,83000,83000,83000
LUBOK,1,BATU PAHAT,JOHOR,83000,83000,83000,83000
MINYAK BEKU,1,BATU PAHAT,JOHOR,83000,83000,83000,83000
PESERAI,1,BATU PAHAT,JOHOR,83000,83000,83000,83000
SIMPANG KANAN,1,BATU PAHAT,JOHOR,83000,83000,"34700, 83000",83000
SIMPANG KIRI,1,BATU PAHAT,JOHOR,83000,83000,"34700, 83000",83000
SRI GADING,1,BATU PAHAT,JOHOR,83000,83000,83000,83000
SRI MEDAN,1,BATU PAHAT,JOHOR,83000,83000,83000,83000
SUNGAI KLUANG,1,BATU PAHAT,JOHOR,"83000, 86000","83000, 86000","83000, 86000","83000, 86000"
SUNGAI PUNGGOR,1,BATU PAHAT,JOHOR,83000,"83000, 83100",83000,83000
TANJONG SEMBRONG,1,BATU PAHAT,JOHOR,83000,83000,83000,83000
BANDAR AYER HTAM,1,BATU PAHAT,JOHOR,83000,83000,83000,83000
BANDAR BANDAR PENGGARAM,1,BATU PAHAT,JOHOR,83000,83000,83000,83000
BANDAR RENGIT,1,BATU PAHAT,JOHOR,"83000, 83100","83000, 83100","83000, 83100","83000, 83100"
BANDAR SENGGARANG,1,BATU PAHAT,JOHOR,"83000, 83200","83000, 83200","83000, 83200","83000, 83200"
BANDAR YONG PENG,1,BATU PAHAT,JOHOR,"83000, 83700","83000, 83700","83000, 83700","83000, 83700"
JELUTONG,1,JOHOR BAHRU,JOHOR,,,"98100, 11600","98100, 11600"
PLENTONG,1,JOHOR BAHRU,JOHOR,,,,81750
PULAI,1,JOHOR BAHRU,JOHOR,,,,81300
SUNGAI TIRAM,1,JOHOR BAHRU,JOHOR,,81800,,81800
TANJUNG KUPANG,1,JOHOR BAHRU,JOHOR,,81550,09200,81550
TEMBRAU,1,JOHOR BAHRU,JOHOR,,,,81100
BANDAR JOHOR BAHRU,1,JOHOR BAHRU,JOHOR,,,,80000
ULU BENUT,1,KLUANG,JOHOR,"86000, 82200","86000, 82200, 86200","86000, 82200","86000, 82200"
KAHANG,1,KLUANG,JOHOR,"86000, 86700","86000, 86700","86000, 86700","86000, 86700"
KLUANG,1,KLUANG,JOHOR,86000,86000,86000,86000
LAYANG-LAYANG,1,KLUANG,JOHOR,"81850, 86000","81850, 86000","06900, 81850, 86000","81850, 86000"
MACHAP,1,KLUANG,JOHOR,86000,86000,86000,86000
NIYOR,1,KLUANG,JOHOR,86000,86000,86000,86000
PALOH,1,KLUANG,JOHOR,"86000, 86600","86000, 86600","86000, 86600","86000, 86600"
RENGAM,1,KLUANG,JOHOR,"86000, 86300","86000, 86300","86000, 86300","86000, 86300"
BANDAR KLUANG,1,KLUANG,JOHOR,86000,86000,86000,86000
BANDAR PALOH,1,KLUANG,JOHOR,"86000, 86600","86000, 86600","86000, 86600","86000, 86600"
BANDAR RENGAM,1,KLUANG,JOHOR,"86000, 86300","86000, 86300","86000, 86300","86000, 86300"
ULU SUNGAI JOHOR,1,KOTA TINGGI,JOHOR,,,71350,71350
ULU SUNGAI SELIDI BESAR,1,KOTA TINGGI,JOHOR,,,71350,71350
JOHOR LAMA,1,KOTA TINGGI,JOHOR,,,71350,71350
KAMBAU,1,KOTA TINGGI,JOHOR,,,"94000, 71350","94000, 71350"
KOTA TINGGI,1,KOTA TINGGI,JOHOR,,,71350,71350
PANTAI TIMUR,1,KOTA TINGGI,JOHOR,,,71350,71350
PENGGERANG,1,KOTA TINGGI,JOHOR,,,71350,71350
SELIDI BESAR,1,KOTA TINGGI,JOHOR,,,71350,71350
SELIDI KECHIL,1,KOTA TINGGI,JOHOR,,,71350,71350
TANJUNG SURAT,1,KOTA TINGGI,JOHOR,,,71350,71350
BANDAR KOTA TINGGI,1,KOTA TINGGI,JOHOR,,,71350,71350
JEMALUANG,1,MERSING,JOHOR,86800,86800,86800,86800
LENGGOR,1,MERSING,JOHOR,86800,86800,"33600, 86800",86800
MERSING,1,MERSING,JOHOR,86800,86800,86800,86800
PADANG ENDAU,1,MERSING,JOHOR,"86900, 86800","86900, 86800","86900, 86800","86900, 86800"
PENYABONG,1,MERSING,JOHOR,86800,86800,86800,86800
PULAU AUR,1,MERSING,JOHOR,86800,86800,86800,86800
PULAU BABI,1,MERSING,JOHOR,86800,86800,86800,86800
PULAU PEMANGGIL,1,MERSING,JOHOR,86800,86800,86800,86800
PULAU SIBU,1,MERSING,JOHOR,86800,86800,"96000, 86800",86800
PULAU TINGGI,1,MERSING,JOHOR,86800,86800,86800,86800
SEMBRONG,1,MERSING,JOHOR,86800,86800,86800,86800
TENGGAROH,1,MERSING,JOHOR,86800,86800,86800,86800
TENGLU,1,MERSING,JOHOR,86800,86800,86800,86800
TRIANG,1,MERSING,JOHOR,86800,86800,"28310, 86800",86800
BANDAR JEMALUANG,1,MERSING,JOHOR,86800,86800,86800,86800
BANDAR MERSING,1,MERSING,JOHOR,86800,86800,86800,86800
BANDAR MERSING KANAN,1,MERSING,JOHOR,86800,86800,86800,86800
BANDAR PADANG ENDAU,1,MERSING,JOHOR,"86900, 86800","86900, 86800","86900, 86800","86900, 86800"
AYER HITAM,1,MUAR,JOHOR,"84200, 84000, 86100","84200, 84000, 86100","84200, 06150, 84000, 86100","84200, 84000, 86100"
BANDAR,1,MUAR,JOHOR,84000,84000,84000,84000
BUKIT KEPONG,1,MUAR,JOHOR,84000,84000,84000,84000
JALAN BAKRI,1,MUAR,JOHOR,"84200, 84000","84200, 84000","84200, 84000","84200, 84000"
JORAK,1,MUAR,JOHOR,84000,"84300, 84000",84000,84000
LENGA,1,MUAR,JOHOR,84000,"84600, 84000",84000,84000
PARIT BAKAR,1,MUAR,JOHOR,84000,84000,"84000, 32800",84000
PARIT JAWA,1,MUAR,JOHOR,"84000, 84150","83500, 84000, 82100, 82000, 86400, 84150","84150, 84000, 32800","84000, 84150"
SRI MERANTI,1,MUAR,JOHOR,84000,84000,84000,84000
SUNGAI BALANG,1,MUAR,JOHOR,84000,"83600, 84000",84000,84000
SUNGAI RAYA & KAMPUNG BUKIT PASIR,1,MUAR,JOHOR,"84300, 84000","84000, 86900, 83200, 83000, 84300","84300, 84000","84300, 84000"
SUNGAI TERAP,1,MUAR,JOHOR,84000,84000,84000,84000
BANDAR BANDAR MAHARANI,1,MUAR,JOHOR,84000,84000,84000,84000
BANDAR BUKIT KEPONG,1,MUAR,JOHOR,84000,84000,84000,84000
BANDAR PANCHOR,1,MUAR,JOHOR,"84500, 84000","81920, 84500, 84000","84500, 84000","84500, 84000"
BANDAR PARIT JAWA,1,MUAR,JOHOR,"84000, 84150","83500, 84000, 82100, 82000, 86400, 84150","84150, 84000, 32800","84000, 84150"
PEKAN BUKIT PASIR,1,MUAR,JOHOR,"84300, 84000","83000, 84300, 84000","84300, 84000, 26600","84300, 84000"
AYER BALOI,1,PONTIAN,JOHOR,"82100, 82000","82100, 82000","82100, 82000","82100, 82000"
AIR MASIN,1,PONTIAN,JOHOR,82000,82000,82000,82000
API-API,1,PONTIAN,JOHOR,82000,82000,82000,82000
BENUT,1,PONTIAN,JOHOR,"82200, 82000","82200, 82000","82200, 82000","82200, 82000"
JERAM BATU,1,PONTIAN,JOHOR,82000,82000,"45800, 31850, 82000",82000
PENGKALAN RAJA,1,PONTIAN,JOHOR,82000,82000,82000,82000
PONTIAN,1,PONTIAN,JOHOR,82000,82000,82000,82000
RIMBA TERJUN,1,PONTIAN,JOHOR,82000,82000,82000,82000
SERKAT,1,PONTIAN,JOHOR,82000,82000,82000,82000
SUNGAI KARANG,1,PONTIAN,JOHOR,82000,82000,82000,82000
SUNGEI PINGGAN,1,PONTIAN,JOHOR,82000,82000,82000,82000
BANDAR BENUT,1,PONTIAN,JOHOR,"82200, 82000","82200, 82000","82200, 82000","82200, 82000"
BANDAR PONTIAN KECHIL,1,PONTIAN,JOHOR,82000,82000,82000,82000
PEKAN PEKAN NENAS,1,PONTIAN,JOHOR,"81500, 82000","81500, 82000","81500, 26600, 82000","81500, 82000"
BEKOK,1,SEGAMAT,JOHOR,"86500, 85000","86500, 85000","27660, 86500, 85000","86500, 85000"
BULOH KASAP,1,SEGAMAT,JOHOR,"85010, 85000","85010, 85000","85010, 27660, 85000","85010, 85000"
CHAAH,1,SEGAMAT,JOHOR,"85400, 85000","85400, 85000","27660, 85000, 85400","85400, 85000"
GEMAS,1,SEGAMAT,JOHOR,85000,85000,"27660, 85000",85000
GEMEREH,1,SEGAMAT,JOHOR,85000,85000,"27660, 85000",85000
JABI,1,SEGAMAT,JOHOR,85000,85000,"27660, 85000",85000
JEMENTAH,1,SEGAMAT,JOHOR,"85200, 85000","85200, 85000","27660, 85200, 85000","85200, 85000"
LABIS,1,SEGAMAT,JOHOR,"85300, 85000","85300, 85000","27660, 85300, 85000","85300, 85000"
POGOH,1,SEGAMAT,JOHOR,85000,85000,"27660, 85000",85000
SERMIN,1,SEGAMAT,JOHOR,85000,85000,"27660, 85000",85000
SUNGAI SEGAMAT,1,SEGAMAT,JOHOR,85000,85000,"27660, 85000",85000
BANDAR BATU ANAM,1,SEGAMAT,JOHOR,"85100, 85000","85100, 85000","85100, 27660, 85000","85100, 85000"
BANDAR BEKOK,1,SEGAMAT,JOHOR,"86500, 85000","86500, 85000","27660, 86500, 85000","86500, 85000"
BANDAR BULOH KASAP,1,SEGAMAT,JOHOR,"85010, 85000","85010, 85000","85010, 27660, 85000","85010, 85000"
BANDAR JEMENTAH,1,SEGAMAT,JOHOR,"85200, 85000","85200, 85000","27660, 85200, 85000","85200, 85000"
BADNAR LABIS,1,SEGAMAT,JOHOR,"85300, 85000","85300, 85000","27660, 85300, 85000","85300, 85000"
BANDAR SEGAMAT,1,SEGAMAT,JOHOR,85000,85000,"27660, 85000",85000
PEKAN GEMAS BAHRU,1,SEGAMAT,JOHOR,85000,85000,"85000, 27660, 26600, 73400",85000
KULAI,1,KULAIJAYA,JOHOR,81000,81000,81000,81000
SENAI,1,KULAIJAYA,JOHOR,81000,81000,81000,81000
SEDENAK,1,KULAIJAYA,JOHOR,81000,81000,81000,81000
BUKIT BATU,1,KULAIJAYA,JOHOR,81000,"84000, 81000",81000,81000
BANDAR KULAI,1,KULAIJAYA,JOHOR,81000,81000,81000,81000
TANGKAK,1,LEDANG,JOHOR,84900,84900,84900,84900
BUKIT SERAMPANG,1,LEDANG,JOHOR,,85200,68000,85200
GERSIK,1,LEDANG,JOHOR,,,08210,08210
SEROM,1,LEDANG,JOHOR,,84400,,84400
KUNDANG,1,LEDANG,JOHOR,,,,84600
KESANG,1,LEDANG,JOHOR,,84000,,84000
BADNAR BUKIT KANGKAR,1,LEDANG,JOHOR,,,,84300
BANDAR PARIT BUNGA,1,LEDANG,JOHOR,,84000,32800,84000
BANDAR SEROM,1,LEDANG,JOHOR,,84400,,84400
BANDAR SUNGAI MATI,1,LEDANG,JOHOR,84400,84400,84400,84400
BANDAR TANGKAK,1,LEDANG,JOHOR,84900,84900,84900,84900
PEKAN GRISEK,1,LEDANG,JOHOR,,,26600,26600
LABUAN,,,WP LABUAN,87000,87000,87000,87000
INANAM,12,KOTA KINABALU,SABAH,88450,88450,"88450, 71350",88450
KEPAYAN,12,KOTA KINABALU,SABAH,,,"06900, 71350","06900, 71350"
LIKAS,12,KOTA KINABALU,SABAH,88400,88400,"88400, 71350",88400
LOK KAWI,12,KOTA KINABALU,SABAH,88200,88200,"88200, 71350",88200
MENGGATAL,12,KOTA KINABALU,SABAH,88450,88450,"88450, 71350",88450
SEPANGGAR,12,KOTA KINABALU,SABAH,,,"43900, 71350","43900, 71350"
TANJUNG ARU,12,KOTA KINABALU,SABAH,88100,88100,"88100, 71350",88100
TELIPOK,12,KOTA KINABALU,SABAH,88450,88450,"88450, 71350",88450
BERUNGIS,12,TUARAN,SABAH,89200,89200,89200,89200
INDAI,12,TUARAN,SABAH,89200,89200,89200,89200
LEMBAH,12,TUARAN,SABAH,89200,89200,89200,89200
MENGKABONG,12,TUARAN,SABAH,89200,89200,"94650, 89200",89200
NABALU,12,TUARAN,SABAH,89200,89200,89200,89200
PANTAI,12,TUARAN,SABAH,89200,89200,89200,89200
PEKAN,12,TUARAN,SABAH,89200,89200,"89200, 26600",89200
SERUSOP,12,TUARAN,SABAH,89200,89200,89200,89200
TAMBALANG,12,TUARAN,SABAH,89200,89200,89200,89200
TENGAH,12,TUARAN,SABAH,89200,89200,89200,89200
ULU,12,TUARAN,SABAH,89200,89200,89200,89200
MANGKALADOI,12,TUARAN,SABAH,89200,89200,89200,89200
TENGHILAN,12,TUARAN,SABAH,"89200, 89260","89300, 89200, 89260","89200, 89260","89200, 89260"
TOPOKON,12,TUARAN,SABAH,89200,89200,89200,89200
TUARAN BANDAR,12,TUARAN,SABAH,89200,89200,89200,89200
TAMPARULI,12,TUARAN,SABAH,"89200, 89250","89200, 89250","89200, 89250","89200, 89250"
MEMBAKUT,12,BEAUFORT,SABAH,"89720, 89800","89720, 89800","89720, 89800","89720, 89800"
,12,KUALA PENYU,SABAH,89740,89740,89740,89740
,12,SIPITANG,SABAH,89850,89850,89850,89850
DONGGONGON,,,SABAH,,,27400,27400
,12,PENAMPANG,SABAH,89500,89500,"89500, 68000",89500
,12,KOTA MARUDU,SABAH,89100,89100,"71350, 89100",89100
,12,PITAS,SABAH,,"89050, 89100",,"89050, 89100"
,12,KUNAK,SABAH,91200,91200,91200,91200
PUEH LAND,13,KUCHING,SARAWAK,,,,94100
GADING LUNDU,13,KUCHING,SARAWAK,94500,94500,94500,94500
STUNGKOR,13,KUCHING,SARAWAK,,,,94500
SAMPADI,13,KUCHING,SARAWAK,,,,93070
JAGOI,13,KUCHING,SARAWAK,,,,94000
SENGGI POAK,13,KUCHING,SARAWAK,,,,94000
MATANG,13,KUCHING,SARAWAK,,,34750,34750
SALAK,13,KUCHING,SARAWAK,,,,93050
PANGKALAN AMPAT,13,KUCHING,SARAWAK,,,,94700
KUCHING UTARA,13,KUCHING,SARAWAK,,,,93050
KUCHING TENGAH,13,KUCHING,SARAWAK,,,,93050
BANDAR KUCHING,13,KUCHING,SARAWAK,,,,93100
SENTAH-SEGU,13,KUCHING,SARAWAK,,,,94200
MUARA TEBAS,13,KUCHING,SARAWAK,93010,93010,"84000, 93010",93010
BANDAR BATU KAWA,13,KUCHING,SARAWAK,,,,93250
"BATU 8, JALAN MATANG",13,KUCHING,SARAWAK,93050,93050,"34750, 93050",93050
BANDAR SUNGAI TENGAH,13,KUCHING,SARAWAK,,,,93050
BANDAR BATU KITANG,13,KUCHING,SARAWAK,,,,93250
"BATU 15, JALAN SENGGANG",13,KUCHING,SARAWAK,,,,94500
"175, JALAN SENGGANG",13,KUCHING,SARAWAK,,,,94500
"BANDAR JALAN BATU 19, JALAN SENGGANG",13,KUCHING,SARAWAK,,,,94500
"BANDAR BATU 24, JALAN SENGGANG",13,KUCHING,SARAWAK,,,,94500
BANDAR PANGKALAN KUT,13,KUCHING,SARAWAK,,,,94700
BANDAR BELIONG,13,KUCHING,SARAWAK,,,,94300
BANDAR BAKO,13,KUCHING,SARAWAK,,,,93010
BANDAR SEMATANG,13,KUCHING,SARAWAK,,94500,34750,94500
BANDAR LUNDU,13,KUCHING,SARAWAK,94500,94500,94500,94500
BANDAR JANGKAR,13,KUCHING,SARAWAK,,,,94500
BANDAR RAMBUNGAN,13,KUCHING,SARAWAK,,,,94500
BANDAR STUNKOR,13,KUCHING,SARAWAK,,,,94500
BANDAR KRANJI,13,KUCHING,SARAWAK,,,,94750
BANDAR SINIWAN,13,KUCHING,SARAWAK,,,,94000
BANDAR PAKU,13,KUCHING,SARAWAK,,94000,,94000
BANDAR JAMBUSAN,13,KUCHING,SARAWAK,,94000,,94000
BANDAR BAU,13,KUCHING,SARAWAK,94000,94000,94000,94000
BANDAR BUSO,13,KUCHING,SARAWAK,,94000,,94000
BANDAR TUNDONG,13,KUCHING,SARAWAK,,,27400,27400
BANDAR MUSI,13,KUCHING,SARAWAK,,,,94000
BANDAR TAI TON,13,KUCHING,SARAWAK,,,,94000
BANDAR BIDI,13,KUCHING,SARAWAK,,,,94000
BANDAR KROKONG,13,KUCHING,SARAWAK,,94000,,94000
BANDAR PANGKALAN TEBANG,13,KUCHING,SARAWAK,,,,94000
BANDAR PEJIRU,13,KUCHING,SARAWAK,,,,94000
BANDAR TIANG BEKAP,13,KUCHING,SARAWAK,93010,93010,93010,93010
BANDAR BARATOK,13,KUCHING,SARAWAK,,,,94200
BANDAR TAPAH,13,KUCHING,SARAWAK,,94200,35000,94200
BANDAR SIBURAN,13,KUCHING,SARAWAK,"94200, 96000","94200, 96000","94200, 96000","94200, 96000"
BANDAR TERBAT,13,KUCHING,SARAWAK,,,,94700
"BANDAR JALAN BATU 17, JALAN SENGGANG",13,KUCHING,SARAWAK,,,,95000
UNDUP,13,SRI AMAN,SARAWAK,95000,95000,95000,95000
KLAUH,13,SRI AMAN,SARAWAK,95000,95000,95000,95000
BIJAT,13,SRI AMAN,SARAWAK,95000,95000,95000,95000
SKARANG,13,SRI AMAN,SARAWAK,95000,95000,95000,95000
KERANGGAS,13,SRI AMAN,SARAWAK,95000,95000,95000,95000
MARUP,13,SRI AMAN,SARAWAK,95000,95000,95000,95000
LAMANAK,13,SRI AMAN,SARAWAK,95000,95000,95000,95000
BUKIT BESAI,13,SRI AMAN,SARAWAK,95000,95000,95000,95000
AI ENGKARI,13,SRI AMAN,SARAWAK,95000,95000,95000,95000
LESONG,13,SRI AMAN,SARAWAK,"96850, 95000","96850, 95000","96850, 95000","96850, 95000"
SELANJANG,13,SRI AMAN,SARAWAK,95000,95000,95000,95000
SILANTEK,13,SRI AMAN,SARAWAK,95000,95000,95000,95000
SIRNANGGANG,13,SRI AMAN,SARAWAK,95000,95000,95000,95000
BANDAR LINGGA,13,SRI AMAN,SARAWAK,"94900, 95000","94900, 95000","94900, 95000","94900, 95000"
BANDAR LUBOK ANTU,13,SRI AMAN,SARAWAK,95000,95000,95000,95000
BANDAR ENGKILILI,13,SRI AMAN,SARAWAK,"95800, 95000","95800, 95000","95800, 95000","95800, 95000"
BANDAR BATU LINTANG,13,SRI AMAN,SARAWAK,95000,"95000, 93200","95000, 33200",95000
BANDAR BANTING,13,SRI AMAN,SARAWAK,95000,"94900, 95000","42700, 95000",95000
BANDAR PANTU,13,SRI AMAN,SARAWAK,95000,95000,95000,95000
BANDAR BAKONG,13,SRI AMAN,SARAWAK,95000,"96500, 95000",95000,95000
BANDAR UNDUP,13,SRI AMAN,SARAWAK,95000,95000,95000,95000
BANDAR SKRANG,13,SRI AMAN,SARAWAK,95000,"95700, 95000",95000,95000
BANDAR MELUGU,13,SRI AMAN,SARAWAK,95000,95000,95000,95000
BANDAR SABU,13,SRI AMAN,SARAWAK,95000,95000,95000,95000
SEDUAN,13,SIBU,SARAWAK,96000,96000,96000,96000
ENGKILO,13,SIBU,SARAWAK,96000,96000,96000,96000
PASAI-SIONG,13,SIBU,SARAWAK,96000,96000,96000,96000
ASSAN,13,SIBU,SARAWAK,96000,96000,96000,96000
MENYAN,13,SIBU,SARAWAK,96000,96000,"06900, 96000",96000
KABANG,13,SIBU,SARAWAK,96000,96000,96000,96000
LUKUT,13,SIBU,SARAWAK,96000,96000,96000,96000
MAPAI,13,SIBU,SARAWAK,96000,96000,96000,96000
MAROH,13,SIBU,SARAWAK,96000,96000,96000,96000
SPALI,13,SIBU,SARAWAK,96000,96000,96000,96000
QYA-DALAT,13,SIBU,SARAWAK,"96000, 96300","96000, 96300","96000, 96300","96000, 96300"
SPAPA,13,SIBU,SARAWAK,96000,96000,96000,96000
PAKU,13,SIBU,SARAWAK,96000,"96000, 94000",96000,96000
LALAI,13,SIBU,SARAWAK,96000,96000,96000,96000
MUKAH,13,SIBU,SARAWAK,"96000, 96400","96000, 96400","96000, 96400","96000, 96400"
GIGIS,13,SIBU,SARAWAK,96000,96000,96000,96000
SELANGAU,13,SIBU,SARAWAK,96000,96000,96000,96000
BALINGAN,13,SIBU,SARAWAK,96000,96000,"09100, 96000",96000
ARIP,13,SIBU,SARAWAK,96000,96000,96000,96000
PELUNGAU,13,SIBU,SARAWAK,96000,96000,96000,96000
BAWAN,13,SIBU,SARAWAK,96000,96000,96000,96000
BULOH,13,SIBU,SARAWAK,96000,96000,96000,96000
BANDAR SIBU,13,SIBU,SARAWAK,96000,96000,96000,96000
BANDAR SENGEI MERAH,13,SIBU,SARAWAK,96000,96000,96000,96000
BANDAR TEKU,13,SIBU,SARAWAK,96000,96000,96000,96000
BANDAR DURIN,13,SIBU,SARAWAK,96000,96000,96000,96000
BANDAR KANOWIT,13,SIBU,SARAWAK,"96000, 96700","96000, 96700","96000, 96700","96000, 96700"
BANDAR DAP,13,SIBU,SARAWAK,96000,96000,96000,96000
BANDAR MACHAN,13,SIBU,SARAWAK,96000,96000,96000,96000
BANDAR NGEMAH,13,SIBU,SARAWAK,96000,96000,96000,96000
BANDAR SENGAYAN,13,SIBU,SARAWAK,96000,96000,"06900, 96000",96000
BANDAR SIBINTEK,13,SIBU,SARAWAK,96000,96000,96000,96000
KONSESI MIRI,13,MIRI,SARAWAK,98000,98000,98000,98000
BANDAR LUTONG,13,MIRI,SARAWAK,"98000, 98100","98000, 98100","98000, 98100","98000, 98100"
BANDAR BAZAR JALAN RIAM,13,MIRI,SARAWAK,98000,98000,98000,98000
KUALA BARAM,13,MIRI,SARAWAK,"98050, 98000","98050, 98000","98050, 98000","98050, 98000"
LAMBIR,13,MIRI,SARAWAK,98000,98000,98000,98000
BANDAR KUALA NYABOR,13,MIRI,SARAWAK,98000,98000,98000,98000
BAREO,13,MIRI,SARAWAK,98000,98000,98000,98000
APOH,13,MIRI,SARAWAK,98000,98000,98000,98000
LIO MATOH,13,MIRI,SARAWAK,98000,98000,98000,98000
SILAT,13,MIRI,SARAWAK,98000,98000,98000,98000
TUTOH,13,MIRI,SARAWAK,98000,98000,98000,98000
PATAH,13,MIRI,SARAWAK,98000,98000,98000,98000
LEPU LEJU,13,MIRI,SARAWAK,98000,98000,98000,98000
DANAU,13,LIMBANG,SARAWAK,98700,98700,98700,98700
PANARUAN,13,LIMBANG,SARAWAK,98700,98700,98700,98700
TRUSAN,13,LIMBANG,SARAWAK,98700,"98850, 98700",98700,98700
LAWAS,13,LIMBANG,SARAWAK,"98850, 98700","98850, 98700","98850, 98700","98850, 98700"
MERAPOK,13,LIMBANG,SARAWAK,98700,98700,98700,98700
LIMBANG,13,LIMBANG,SARAWAK,98700,98700,98700,98700
DANAU,13,LIMBANG,SARAWAK,98700,98700,98700,98700
NANGA MEDAMIT,13,LIMBANG,SARAWAK,"98750, 98700","98750, 98700","98750, 98700","98750, 98700"
TRUSAN,13,LIMBANG,SARAWAK,98700,"98850, 98700",98700,98700
LAWAS,13,LIMBANG,SARAWAK,"98850, 98700","98850, 98700","98850, 98700","98850, 98700"
MERAPOK,13,LIMBANG,SARAWAK,98700,98700,98700,98700
UKONG,13,LIMBANG,SARAWAK,98700,98700,98700,98700
BANDAR SUNDAR,13,LIMBANG,SARAWAK,"98800, 98700","98800, 98700","98800, 98700","98800, 98700"
SUNGAI ADANG,13,LIMBANG,SARAWAK,98700,98700,98700,98700
LONG NAPIR,13,LIMBANG,SARAWAK,98700,98700,98700,98700
SUNGAI ADDANG,13,LIMBANG,SARAWAK,98700,98700,98700,98700
TENGOA-SUKANG,13,LIMBANG,SARAWAK,98700,98700,98700,98700
LONG NERAPAP,13,LIMBANG,SARAWAK,98700,98700,98700,98700
LONG SEMADO,13,LIMBANG,SARAWAK,98700,98700,98700,98700
BAKALALAN,13,LIMBANG,SARAWAK,98700,98700,98700,98700
BATU LAWI,13,LIMBANG,SARAWAK,98700,98700,98700,98700
SERENDANG,13,SARIKEI,SARAWAK,96100,96100,96100,96100
MARADONG,13,SARIKEI,SARAWAK,96100,96100,"96100, 27400",96100
TULAI,13,SARIKEI,SARAWAK,96100,"96100, 96500",96100,96100
SARIKEI,13,SARIKEI,SARAWAK,96100,96100,96100,96100
BUAN,13,SARIKEI,SARAWAK,96100,96100,96100,96100
SARE,13,SARIKEI,SARAWAK,96100,96100,96100,96100
PEDANUM,13,SARIKEI,SARAWAK,96100,96100,96100,96100
MELURUN,13,SARIKEI,SARAWAK,96100,96100,96100,96100
JIKANG,13,SARIKEI,SARAWAK,96100,96100,96100,96100
BANDAR BINATANG,13,SARIKEI,SARAWAK,96100,96100,96100,96100
JULAU,13,SARIKEI,SARAWAK,"96100, 96600","96100, 96600","96100, 96600","96100, 96600"
BANDAR PAKAN,13,SARIKEI,SARAWAK,96100,96100,"96100, 23100",96100
BANDAR SELALANG,13,SARIKEI,SARAWAK,96100,96100,96100,96100
GUNUNG AYER,13,SARIKEI,SARAWAK,96100,96100,96100,96100
BINATANG,13,SARIKEI,SARAWAK,96100,96100,96100,96100
KATIBAS,13,KAPIT,SARAWAK,96800,"96850, 96800",96800,96800
IBAU,13,KAPIT,SARAWAK,"94000, 96800","94000, 96800","94000, 96800","94000, 96800"
MENUAN,13,KAPIT,SARAWAK,96800,96800,96800,96800
SUAU,13,KAPIT,SARAWAK,96800,96800,96800,96800
OYAN,13,KAPIT,SARAWAK,96800,"96800, 96410","06900, 96800",96800
BANING,13,KAPIT,SARAWAK,96800,96800,96800,96800
MAJAU,13,KAPIT,SARAWAK,96800,96800,96800,96800
MENRAL,13,KAPIT,SARAWAK,96800,96800,96800,96800
METAH,13,KAPIT,SARAWAK,96800,96800,96800,96800
RIRONG,13,KAPIT,SARAWAK,96800,96800,96800,96800
MAMU,13,KAPIT,SARAWAK,96800,96800,96800,96800
ANGKUAH,13,KAPIT,SARAWAK,96800,96800,96800,96800
PELAGUS,13,KAPIT,SARAWAK,96800,96800,96800,96800
BANDAR KAPIT,13,KAPIT,SARAWAK,96800,96800,96800,96800
BANDAR SONG,13,KAPIT,SARAWAK,"96850, 96800","96850, 96800","96850, 96800","96850, 96800"
BANGKIT,13,KAPIT,SARAWAK,96800,96800,96800,96800
BATU LAGA,13,KAPIT,SARAWAK,96800,96800,96800,96800
PELANDUK,13,KAPIT,SARAWAK,96800,96800,96800,96800
ENTEMU,13,KAPIT,SARAWAK,96800,96800,96800,96800
MENGIONG,13,KAPIT,SARAWAK,96800,96800,96800,96800
SERANI,13,KAPIT,SARAWAK,96800,96800,96800,96800
BALUI,13,KAPIT,SARAWAK,96800,96800,96800,96800
KUMBONG,13,KAPIT,SARAWAK,96800,96800,96800,96800
MURUM,13,KAPIT,SARAWAK,96800,96800,96800,96800
PUNAN,13,KAPIT,SARAWAK,96800,96800,96800,96800
DANUM,13,KAPIT,SARAWAK,96800,96800,96800,96800
LESONG,13,SAMARAHAN,SARAWAK,96850,96850,96850,96850
MENUKU,13,SAMARAHAN,SARAWAK,,,,94300
KAYAN,13,SAMARAHAN,SARAWAK,,,06900,06900
SAMARAHAN,13,SAMARAHAN,SARAWAK,,,,94300
MUARA TUANG,13,SAMARAHAN,SARAWAK,,,84000,84000
BUKAR-SADONG,13,SAMARAHAN,SARAWAK,,,27400,27400
SUNGAI KEDUP,13,SAMARAHAN,SARAWAK,,94700,,94700
MELIKIN LAND,13,SAMARAHAN,SARAWAK,,,,94700
SEDILU-GEDONG,13,SAMARAHAN,SARAWAK,,,27400,27400
SADONG,13,SAMARAHAN,SARAWAK,,,27400,27400
SEBANGAN-KEPAYAN,13,SAMARAHAN,SARAWAK,,94800,06900,94800
PUNDA-SABAL,13,SAMARAHAN,SARAWAK,,,,94700
BANDAR SEBUYAU,13,SAMARAHAN,SARAWAK,94850,94850,94850,94850
BANDAR SUNGAI MERAH,13,SAMARAHAN,SARAWAK,,,,94700
BANDAR SUNAGAI MERANG,13,SAMARAHAN,SARAWAK,,,,94700
BANDAR SUNGAI PALAH,13,SAMARAHAN,SARAWAK,,,,94700
"BATU 29, JALAN SIMANGGANG",13,SAMARAHAN,SARAWAK,,95000,,95000
"BATU 32, JALAN SIMANGGANG",13,SAMARAHAN,SARAWAK,,95000,,95000
"BATU 34+, JALAN SIMANGGANG",13,SAMARAHAN,SARAWAK,,95000,,95000
BANDAR SERIAN,13,SAMARAHAN,SARAWAK,94700,94700,94700,94700
BANDAR TEBAKANG,13,SAMARAHAN,SARAWAK,,94750,,94750
BANDAR MUARA MONGKOS,13,SAMARAHAN,SARAWAK,,94750,84000,94750
BANDAR TEDEBU,13,SAMARAHAN,SARAWAK,,,,94760
BANDAR BALAI RINGIN,13,SAMARAHAN,SARAWAK,,,,94700
BANDAR TAMBIRAT,13,SAMARAHAN,SARAWAK,,,,94600
BANDAR MUARA TUANG,13,SAMARAHAN,SARAWAK,,,84000,84000
BANDAR SIMUJAN,13,SAMARAHAN,SARAWAK,,,,94700
BANDAR GEDONG,13,SAMARAHAN,SARAWAK,,,27400,27400
BANDAR SEBANGAN,13,SAMARAHAN,SARAWAK,,94800,,94800
BANDAR TEBELU,13,SAMARAHAN,SARAWAK,,,,94850
BANDAR TERBAT,13,SAMARAHAN,SARAWAK,,,,94700
BINTULU,13,BINTULU,SARAWAK,97000,97000,97000,97000
KEMENA,13,BINTULU,SARAWAK,97000,97000,97000,97000
SEBAUH,13,BINTULU,SARAWAK,"94000, 97000, 97100","94000, 97000, 97100","94000, 97000, 97100","94000, 97000, 97100"
BANDAR LANANG,13,BINTULU,SARAWAK,97000,97000,97000,97000
BANDAR PANDAN,13,BINTULU,SARAWAK,97000,"97100, 97000",97000,97000
BANDAR TUBAU,13,BINTULU,SARAWAK,"94000, 97000","94000, 97000, 97100","94000, 97000","94000, 97000"
SELEZU,13,BINTULU,SARAWAK,97000,97000,97000,97000
BATU KAPAL,13,BINTULU,SARAWAK,97000,97000,97000,97000
RASAN,13,BINTULU,SARAWAK,97000,97000,"97000, 44200",97000
PANDAN,13,BINTULU,SARAWAK,97000,"97100, 97000",97000,97000
BANDAR KUALA TATAU,13,BINTULU,SARAWAK,"97000, 97200","97000, 97200","97000, 97200","97000, 97200"
BANDAR TATAU,13,BINTULU,SARAWAK,"97000, 97200","97000, 97200","97000, 97200","97000, 97200"
BUAN LAN,13,BINTULU,SARAWAK,97000,97000,97000,97000
SANGAN,13,BINTULU,SARAWAK,97000,97000,97000,97000
ANAP,13,BINTULU,SARAWAK,97000,97000,97000,97000
KAKUS,13,BINTULU,SARAWAK,97000,"97000, 97200",97000,97000
JELALONG,13,BINTULU,SARAWAK,97000,97000,97000,97000
BINIA,13,BINTULU,SARAWAK,97000,97000,97000,97000
BANDAR MALUDAM,13,BETONG,SARAWAK,95700,"95700, 94950",95700,95700
